ActivityID,Name,Url,Telephone,Longitude,Latitude,AddressRegion,AddressLocality,AddressCountry
1,"""A Rural Experience"" Day Tours",http://www.aruralexperience.com,+353(0)567727590,-7.07423970149609,52.6297968743748,Kilkenny,Gowran,Republic of Ireland
2,10 Fleet Street Restaurant & Bar,http://themorgan.com/en/10-fleet-street,+353(0)16437000,-6.2612322100822,53.3457958187091,Dublin,Dublin City,Republic of Ireland
3,101 Talbot,https://www.facebook.com/pages/101-Talbot-Restaurant/197016933657643,+353(0)18745011,-6.257199,53.350167,Dublin,Dublin City,Republic of Ireland
4,11 Day Discover Ireland Tour - Vagabond Tours of Ireland,http://twitter.com/vagabondireland,+353(0)14428559,-6.26020515750122,53.3493056292935,Dublin,Dublin City,Republic of Ireland
5,12 Day Giant Irish Adventure Tour - Vagabond Tours of Ireland,http://twitter.com/vagabondireland,+353(0)14428559,-6.26020515750122,53.3493056292935,Dublin,Dublin City,Republic of Ireland
6,12 Henrietta Street,http://thedrawingroom.ie/,+353(0)862746153,-6.2705757,53.3524569,Dublin,Dublin City,Republic of Ireland
7,126 Artist-Run Gallery,https://126gallery.com/,,-9.0494491,53.2772719,Galway,Galway City,Republic of Ireland
8,14 Henrietta Street,https://14henriettastreet.ie,35315240383,-6.27021090475955,53.3525066716744,Dublin,Dublin City,Republic of Ireland
9,1916 Freedom Tour,http://www.1916tour.ie,+353(0)15311916,-6.25036385533451,53.3391383245021,Dublin,Dublin City,Republic of Ireland
10,1916 Rebellion Walking Tours,http://www.1916rising.com,+353(0)868583847,-6.261746,53.343099,Dublin,Dublin City,Republic of Ireland
11,1916 Ride the Revolution Rise of the Rebels Bus Tour - Hidden Dublin Walks,http://www.hiddendublinwalks.com/1916-bus-tour-dublin.php,+353(0)862088117,-6.2798109,53.3454402,Dublin,Dublin City,Republic of Ireland
12,1st Adventure Tours,http://1stadventuretours.ie,+353(0)860767812,-8.60323392388511,54.1680768171531,Sligo,Coolaney,Republic of Ireland
13,2019 Irish Harvest Festival,http://rolysbistro.ie,+353(0)16682611,-6.23225326121451,53.3294028362726,Dublin,Ballsbridge,Republic of Ireland
14,2020 Art Gallery,https://2020curates.com/,353868332812,-8.4801299,51.90143,Cork,Cork City,Republic of Ireland
15,3 Day Southern Tour - Shamrocker Adventures,http://www.shamrockeradventures.com,+353(0)16727651,-6.269701,53.343801,Dublin,Dublin City,Republic of Ireland
16,3 Day Western Rocker Tour - Shamrocker Adventures,http://www.shamrockeradventures.com,+353(0)16727651,-6.269701,53.343801,Dublin,Dublin City,Republic of Ireland
17,360 Cookhouse,https://www.360cookhouse.ie/,3535844537,-7.6172691,52.0889628,Waterford,Dungarvan,Republic of Ireland
18,365 Chauffeur Drive,http://www.365chauffeurdrive.ie,+353(0)871342012,-6.2601700553123,53.3493830372358,Dublin,Dublin City,Republic of Ireland
19,37 Dawson Street,http://www.37dawsonstreet.ie,35319022908,-6.258755,53.34054,Dublin,Dublin City,Republic of Ireland
20,5 Day Celtic Rocker Tour - Shamrocker Adventures,http://www.shamrockeradventures.com,+353(0)16727651,-6.269701,53.343801,Dublin,Dublin City,Republic of Ireland
21,5 Day Fishing-Fly Fishing or Sea Angling,http://www.real-ireland.com,+00353(0)749548891,-8.43079226026218,54.9838630279562,Donegal,Burtonport,Republic of Ireland
22,5 Day Giant's Rocker Tour - Shamrocker Adventures,http://www.shamrockeradventures.com,+353(0)16727651,-6.269701,53.343801,Dublin,Dublin City,Republic of Ireland
23,53 Degrees North,http://www.53degreesnorth.ie,353214949804,-8.4755582,51.8993312,Cork,Cork City,Republic of Ireland
24,56 Central Restaurant,http://www.56central.com,35391569511,-9.052348,53.272925,Galway,Galway City,Republic of Ireland
25,6 Day Northern Ireland Tour - Vagabond Tours of Ireland,http://twitter.com/vagabondireland,+353(0)14428559,-6.26020515750122,53.3493056292935,Dublin,Dublin City,Republic of Ireland
26,64 Wine,http://64wine.ie,+353(0)12805664,-6.12311677152729,53.2872152821415,Dublin,Glasthule,Republic of Ireland
27,7 Day All Ireland Rocker Tour - Shamrocker Adventures,http://www.shamrockeradventures.com,+353(0)16727651,-6.269701,53.343801,Dublin,Dublin City,Republic of Ireland
28,"7 Day Magnetic North Adventure Tour, Vagabond Tours of Ireland",http://www.instagram.com/vagabondireland,+353(0)15634358,-6.10577993557354,53.0844372051494,Wicklow,Newtown Mount Kennedy,Republic of Ireland
29,7 Day Treasure Ireland Tour - Vagabond Tours of Ireland,http://twitter.com/vagabondireland,+353(0)14428559,-6.26020515750122,53.3493056292935,Dublin,Dublin City,Republic of Ireland
30,7 Day World Tour of Ireland - Vagabond Tours of Ireland,http://twitter.com/vagabondireland,+353(0)14428559,-6.26020515750122,53.3493056292935,Dublin,Dublin City,Republic of Ireland
31,"7th Wave Surf, Sup, Kayak School",http://www.surfsligo.com,353879716389,-9.0987116,54.2116305,Sligo,Enniscrone,Republic of Ireland
32,8 Day Wild Irish Rover - Vagabond Tours of Ireland,http://twitter.com/vagabondireland,+353(0)14428559,-6.26020515750122,53.3493056292935,Dublin,Dublin City,Republic of Ireland
33,A Heritage Walk of Old Galway,,+353(0)91588897,-9.04947254971209,53.2721788149031,Galway,Galway City Centre,Republic of Ireland
34,A Spasso A Dublino - Italian Tour in Dublin,https://www.aspassoperdublino.com/,+353(0)899644861,-6.25164772594451,53.3422400230571,Dublin,Dublin City,Republic of Ireland
35,A Touch of Ireland Ltd.,http://atouchofireland.ie/,+353(0)16680888,-6.236283,53.336932,Dublin,Dublin City,Republic of Ireland
36,Aasleagh Falls,,,-9.672464,53.618081,Mayo,Delphi,Republic of Ireland
37,Abbey Ireland & UK,http://www.abbey.ie,+353(0)16486100,-6.27682906018833,53.3446096824302,Dublin,Dublin City,Republic of Ireland
38,Abbey Par 3 Golf Club,,+353(0)866084257,-6.862713,52.231827,Wexford,Fethard On Sea,Republic of Ireland
39,Abbey Road Artists’ Studios,http://www.athloneartsandtourism.ie/artists-studios/,353906442154,-7.9442923,53.429856,Westmeath,Athlone,Republic of Ireland
40,Abbey Road Gardens,https://www.facebook.com/waterfordgardentrail/,353872209026,-7.102184,52.264196,Waterford,Ferrybank,Republic of Ireland
41,Abbey Theatre,http://www.abbeytheatre.ie,+353(0)18787222,-6.257107,53.34854,Dublin,Dublin City,Republic of Ireland
42,Abbey Theatre Tours,http://www.abbeytheatre.ie,+353(0)18787222,-6.257107,53.34854,Dublin,Dublin City,Republic of Ireland
43,Abbeyderg Abbey and Graveyard,http://visitlongford.ie/listings/abbeyderg-abbey,353433346566,-7.78910667668568,53.6334654024929,Longford,Kenagh,Republic of Ireland
44,Abbeyfeale Farmers Market,https://www.iomst.ie/market/abbeyfeale-farmers-market/,353876866450,-9.301963,52.384547,Limerick,Abbeyfeale,Republic of Ireland
45,Abbeyleix Golf Club,http://www.abbeyleixgolfclub.ie,353578731450,-7.3372447,52.921763,Laois,Abbeyleix,Republic of Ireland
46,Abbeyleix Heritage House,http://www.abbeyleixheritage.com/about-us/,353578731653,-7.3464114,52.9172919,Laois,Abbeyleix,Republic of Ireland
47,Abbeyleix Loops - Killamuck Bog,http://www.irishtrails.ie/Trail/Abbeyleix-Loops---Killamuck-Bog-loop/623/,,-7.35307920316802,52.9068305299693,Laois,Abbeyleix,Republic of Ireland
48,Abbeyshrule Monastery,http://www.facebook.com/AbbeyshruleAbbey,353433342577,-7.6583470787125,53.5796914273899,Longford,Abbeyshrule,Republic of Ireland
49,About Cork Taxi Tours,http://www.aboutcorktaxitours.com,+353(0)2546788,-8.47400571035269,51.8984153316716,Cork,Cork City,Republic of Ireland
50,Aboveboard,https://www.facebook.com/aboveboardkitesupwakebike,35312804774,-6.14870248101192,53.2972947317128,Dublin,Dún Laoghaire,Republic of Ireland
51,Acapulco Dublin,http://www.acapulco.ie,+353(0)16771085,-6.264233,53.343616,Dublin,Dublin City,Republic of Ireland
52,Accents Coffee & Tea Lounge,http://www.accents-lounge.com,+353(0)14160040,-6.2647229331352,53.3413375482743,Dublin,Dublin City,Republic of Ireland
53,ACET - Cork Language Centre International,https://www.acetireland.ie,353214551661,-8.4692546,51.9022032,Cork,Cork City,Republic of Ireland
54,Achill Archaeological Field School - Scoil Seandálúil Acla,http://www.achill-fieldschool.com,3539843564,-10.1285782,53.9747652,Mayo,Achill Island -Acaill,Republic of Ireland
55,Achill Bikes - Bike Rental,http://www.achillbikes.com,353872437686,-10.1328197,53.9742244,Mayo,Achill Island -Acaill,Republic of Ireland
56,Achill Cliff House Restaurant,https://www.achillcliff.com/en/restaurant/about-restaurant,3539843400,-10.0810517,53.976098,Mayo,Achill Island -Acaill,Republic of Ireland
57,Achill Cycle Hub,http://www.irishtrails.ie/Trail/Achill-Cycle-Hub---Loop-1/1144/,+353(0)9847353,-9.99073259547387,53.9626100660387,Mayo,Achill Island -Acaill,Republic of Ireland
58,Achill Experience and Aquarium,http://www.achillexperience.ie,3539843292,-10.080603,53.983983,Mayo,Achill Island -Acaill,Republic of Ireland
59,Achill Golf Club,http://www.achillgolf.com,3539843456,-10.0676021,53.97578,Mayo,Achill Island -Acaill,Republic of Ireland
60,Achill Heritage Centre,https://achillheritagecentre.wordpress.com,353863406396,-9.9833712,53.9762269,Mayo,Achill Island -Acaill,Republic of Ireland
61,Achill Island - Dooagh Loop Walk,http://www.irishtrails.ie/Trail/Achill-Island---Dooagh-Loop/498/,,-10.1242851467434,53.9729098377987,Mayo,Achill Island -Acaill,Republic of Ireland
62,Achill Island -Acaill,http://achilltourism.com/,+353(0)9820400,-9.99389294297557,53.9517526424668,Mayo,Achill Island -Acaill,Republic of Ireland
63,"Achill Island Blueway, Achill Island",https://www.facebook.com/BluewayIreland,+353(0)9825711,-10.1260904496032,53.97379137841,Mayo,Achill Island -Acaill,Republic of Ireland
64,Achill Island Heritage Tours,http://www.achillcoaches.ie/heritage-tours,+353(0)858505025,-10.1368075500764,53.9732731739707,Mayo,Achill Island -Acaill,Republic of Ireland
65,Achill Isle Walks,http://www.achillislehouse.com/tours.html,+353(0)868439683,-9.99073259547387,53.9626100660387,Mayo,Achill Island -Acaill,Republic of Ireland
66,Achill Outdoor Education Centre,http://www.achilloutdoor.com,3539847253,-9.9685692,53.9576243,Mayo,Achill Island -Acaill,Republic of Ireland
67,Achill Seaweed Baths,https://www.facebook.com/AchillSeaweedBaths,353877171713,-10.0451336,53.9776589,Mayo,Achill Island -Acaill,Republic of Ireland
68,Achill Secret Garden,http://www.achillsecretgarden.com,353874149895,-9.9595077,53.875656,Mayo,Achill Island -Acaill,Republic of Ireland
69,Achill Surf & Kayak,http://www.achillsurf.com,353851554376,-10.0792666145332,53.9725795088618,Mayo,Achill Island -Acaill,Republic of Ireland
70,Acorn Restaurant,https://www.castleoaks.ie/acorn-restaurant,35361377666,-8.5085895,52.7095672,Limerick,Castleconnell,Republic of Ireland
71,Activate,http://www.Activatewaterford.ie,35351325097,-7.0895609,52.242381,Waterford,Waterford City,Republic of Ireland
72,Activities Ireland,https://www.activitiesireland.ie,35315056794,-6.4491178,53.3583925,Dublin,Lucan,Republic of Ireland
73,Activity Days Ltd.,http://activitydays.ie,353873306306,-8.5674229,51.9395051,Cork,Blarney,Republic of Ireland
74,Adam Ladd Tours,https://www.adamladdtours.com/,353851572537,-6.3007858,53.3403825,Dublin,Kilmainham,Republic of Ireland
75,Adams & Butler,http://www.adamsandbutler.com/golf,35312889355,-6.215285,53.300625,Dublin,Mount Merrion,Republic of Ireland
76,Adare Franciscan Friary,http://www.adaremanor.com,35361396204,-8.77973613258908,52.5518669162486,Limerick,Adare,Republic of Ireland
77,Adare Heritage Centre,http://www.adareheritagecentre.ie,35361396666,-8.7898313,52.5647887,Limerick,Adare,Republic of Ireland
78,Adare Village & Riverbank Walk,,,-8.79321382607429,52.562085705516,Limerick,Adare,Republic of Ireland
79,Adare Woollens,http://www.adarewoollens.com,35361396922,-8.789833,52.56479,Limerick,Adare,Republic of Ireland
80,Adelaide Memorial Church,http://www.carlowtourism.com,353599157671,-6.778635,52.684946,Carlow,Myshall,Republic of Ireland
81,Adelaide Road Presbyterian Church,http://www.adelaideroadchurch.ie,+353(0)12694944,-6.258781,53.332501,Dublin,Dublin City,Republic of Ireland
82,Adrian Cooke Classical Art Atelier,http://www.classicalartatelier.com,353876609644,-7.250912,52.17701,Waterford,Annestown,Republic of Ireland
83,Adrigole Arts,http://www.hungryhillgallery.com,3532760234,-9.7104121,51.6844057,Cork,Adrigole,Republic of Ireland
84,AdvenTour in Cork,http://www.adventourincork.com/english.html,+353(0)899810517,-8.47502159701708,51.8970869054031,Cork,Cork City,Republic of Ireland
85,ADVENTURE 001 Ireland,https://www.adventure001.ie,+353(0)51347331,-7.086347,52.186723,Waterford,Waterford City,Republic of Ireland
86,ADVENTURE 001 Ireland - Helicopter Tours,http://adventure001.ie/,+353(0)51347331,-9.31895341098016,53.0188517199791,Clare,Lisdoonvarna,Republic of Ireland
87,Adventure Breaks Ireland - Segway Tour,http://adventurebreaksireland.com/adventures-by-land/,+353(0)876067518,-6.25930291817713,53.3488728652515,Dublin,Dublin City,Republic of Ireland
88,Adventure Breaks Ireland Bicycle Rental,https://www.adventurebreaksireland.com/bike-rental-3,353876067518,-6.25930828259504,53.3488840730941,Dublin,Dublin City,Republic of Ireland
89,Adventure Burren,http://www.adventureburren.com,+353(0)872244569,-9.0551087,53.0382944,Clare,The Burren,Republic of Ireland
90,Adventure Gently,http://www.adventuregently.com,353851821547,-8.3012295257849,54.2304964391538,Leitrim,Dromahair,Republic of Ireland
91,Adventure Getaways with Connemara Wild Escapes,http://www.connemarawildescapes.ie/adventure/,+353(0)863771025,-9.94810605761722,53.5536588112235,Galway,Letterfrack,Republic of Ireland
92,Adventure Kayaking Tours,http://www.northclareseakayaking.com,353851195489,-9.20297,52.93231,Clare,Doolin,Republic of Ireland
93,Adventure One Surf School,http://www.adventureone.net,353876285565,-7.701934,55.247959,Donegal,Fanad,Republic of Ireland
94,Adventure Rooms Dublin,https://adventurerooms.ie/,35318727927,-6.2704305,53.3496638,Dublin,Dublin City,Republic of Ireland
95,Adventure Tours Inis Mor,http://facebook.com/Adventure-Tours-Inis-Mor-327265997806468/,353879547571,-9.66904792855837,53.1191408281519,Galway,Inishmore - Árainn (Aran Islands),Republic of Ireland
96,Aer Arann Islands,http://www.aerarannislands.ie,+353(0)91593034,-9.46731509511847,53.232080708613,Galway,Inveran,Republic of Ireland
97,Aerfort Réigiúnach Chonamara (Connemara Regional Airport),,,-9.46964,53.232266,Galway,Inveran,Republic of Ireland
98,Aghaboe Abbey,,353578739628,-7.5140093,52.9222166,Laois,Aghaboe,Republic of Ireland
99,Agharinagh Inspirational Gardens,http://www.griffinsgardencentre.ie,353217334286,-8.724551,51.912194,Cork,Dripsey,Republic of Ireland
100,Agricultural Heritage Display Centre,http://www.coolakayhouse.ie/museum,35312862423,-6.1880463,53.1667259,Wicklow,Enniskerry,Republic of Ireland
101,Ahakista Air India Plane Disaster Memorial,http://livingthesheepsheadway.com/air-india-disaster-memorial,3532821489,-9.621448,51.59751,Cork,Ahakista,Republic of Ireland
102,Ahenny High Crosses,http://www.megalithicireland.com/High%20Cross%20Ahenny.htm,,-7.39333338161782,52.4125374566596,Tipperary,Ahenny,Republic of Ireland
103,Ahoy Café,https://www.facebook.com/ahoycafekillybegs,353749731952,-8.4460411,54.6333848,Donegal,Killybegs,Republic of Ireland
104,Aidi MacDáibhi Celtic Jewellery,http://www.celticjewelry.ie,353834834176,-9.482015,52.447323,Kerry,Listowel,Republic of Ireland
105,Aileach Restaurant,https://www.clanreehotel.com/dining.html,353749124369,-7.6983954,54.9436594,Donegal,Letterkenny,Republic of Ireland
106,Aillebrack Green Coast Beach 2019,http://www.cleancoastsireland.org,,-10.1401412242919,53.4164726309031,Galway,Ballyconneely,Republic of Ireland
107,Duplicate Aillwee Cave & The Birds Of Prey Centre,http://www.aillweecave.ie,353657077036,-9.143653,53.089126,Clare,Ballyvaughan,Republic of Ireland
108,Aillwee Cave & The Birds of Prey Centre,http://www.aillweecave.ie,353657077036,-9.1436674,53.0891282,Clare,Ballyvaughan,Republic of Ireland
109,Aine Dunne - Fine Art Tapestry Weaver,http://www.ainedunneweaver.com,353879112502,-6.351277,53.762114,Louth,Drogheda,Republic of Ireland
110,Aircoach,http://aircoach.ie,+353(0)18447118,-6.243069,53.428486,Dublin,Dublin Airport,Republic of Ireland
111,Airfield Estate,http://www.airfield.ie,35319696666,-6.2369953,53.2881795,Dublin,Dundrum,Republic of Ireland
112,Airmid Natural Handmade Skincare,https://airmidsoap.com/pages/about-us,353892066292,-9.2627951,53.0044789,Kerry,Waterville,Republic of Ireland
113,AJLA Restaurant,https://www.ajla.ie,35391485413,-8.8803425,53.2276828,Galway,Clarinbridge,Republic of Ireland
114,Alaind Walking Sneem,https://alaindwalkingireland.ie,353852581480,-9.9086594,51.84421,Kerry,Sneem,Republic of Ireland
115,Alainn Tours,http://www.vacancesenirlande.com,+353(0)719150345,-8.49441129053582,54.276444346788,Sligo,Sligo Town,Republic of Ireland
116,Alan Gaillard Stoneware Pottery,http://www.alangaillard.com,3539522786,-10.031529,53.503391,Galway,Clifden,Republic of Ireland
117,Albatross Escape Rooms,https://www.albatrossescape.ie,353838957777,-9.453056,51.6806008,Cork,Bantry,Republic of Ireland
118,Alex Restaurant,https://twitter.com/ConradDublin,+353(0)16028900,-6.257232,53.334945,Dublin,Dublin City,Republic of Ireland
119,Alfie Byrne's,http://galwaybaybrewery.com/alfiebyrnes/,+353(0)16028976,-6.25750520601275,53.3347402832561,Dublin,Dublin City,Republic of Ireland
120,Alfie's Bar and Grill,http://www.conraddublin.com,+353(0)16028900,-6.257232,53.334945,Dublin,Dublin City,Republic of Ireland
121,Alix Gardners Cookery School,http://www.dublincookery.com,+353(0)16681553,-6.245333,53.329644,Dublin,Ballsbridge,Republic of Ireland
122,All Ireland Chauffeur - Coach Tours,http://www.allirelandchauffeurtours.com,+353(0)876613619,-7.07549231468045,52.2393818711705,Waterford,Waterford City,Republic of Ireland
123,All Things Connemara,https://www.connemara.net/things-connemara,3539522630,-10.0206564,53.4875722,Galway,Clifden,Republic of Ireland
124,Allihies - Ballydonegan Loop,http://www.bearatourism.com/loopallihies.html,+353(0)2770054,-10.0509686404297,51.650442197433,Cork,Allihies,Republic of Ireland
125,Allihies - Kealogue Mine Loop,http://www.irishtrails.ie/Trail/Allihies---Kealoge-loop/630/,+353(0)2770054,-10.0516552859375,51.6489510524492,Cork,Allihies,Republic of Ireland
126,Allihies Copper Mine Museum,http://www.acmm.ie/theminemuseum,3532773218,-10.045585,51.638933,Cork,Allihies,Republic of Ireland
127,Allihies Copper Mine Tour,http://bearabaoitours.com,+353(0)876461627,-10.045510909174,51.6391211806187,Cork,Allihies,Republic of Ireland
128,"Allo's Restaurant, Bar & Bistro",https://www.facebook.com/Allosbarbistro,3536822880,-9.4842248,52.4465992,Kerry,Listowel,Republic of Ireland
129,Aloha Surf School,http://www.surfschool.ie,353872133996,-9.2861007,53.1174754,Clare,Fanore,Republic of Ireland
130,Alpha College of English,http://www.alphacollege.com,+353(0)18747024,-6.26182401719666,53.3552083170315,Dublin,Dublin City,Republic of Ireland
131,Alpine Fishery,,+353(0)9636733,-9.09244,54.2159,Sligo,Enniscrone,Republic of Ireland
132,Altamont Gardens,https://heritageireland.ie/visit/places-to-visit/altamont-gardens/,353599159444,-6.72083739021298,52.7357813084342,Carlow,Tullow,Republic of Ireland
133,Altar,,,-9.6438852,51.514061,Cork,Schull,Republic of Ireland
134,Alternative Bread Company,https://www.instagram.com/alternativebread/?hl=en,353214251347,-8.4747435,51.8976506,Cork,Cork City,Republic of Ireland
135,Alternative Visions,http://alternativevisions.co.uk,353872825851,-7.969439296019,55.1832747091389,Donegal,Dunfanaghy,Republic of Ireland
136,Altidore Castle,https://www.ihh.ie/index.cfm/houses/house/name/Altidore%20Castle,353877601369,-6.1381173,53.1106151,Wicklow,Kilpedder West,Republic of Ireland
137,Altitude Cycle & Outdoor Store,http://www.altitude.ie,35351870356,-7.1187809,52.2602341,Waterford,Waterford City,Republic of Ireland
138,Alvito's Italian Restaurant,https://alvitos.ie,35316242160,-6.4883839,53.3643182,Kildare,Leixlip,Republic of Ireland
139,Amazing Irish Vacations,https://www.facebook.com/Amazingirishvacations,+353(0)61484911,-8.62726945078339,52.6631013855745,Limerick,Dooradoyle,Republic of Ireland
140,Ambassador Theatre,,+353(0)0818333773,-6.261968,53.352709,Dublin,Dublin City,Republic of Ireland
141,Amicus Restaurant,http://www.amicusrestaurant.ie,353214276455,-8.474213,51.899358,Cork,Cork City,Republic of Ireland
142,AMOC Jewellery,http://www.amoc.ie,35312871515,-6.0625099,53.1443074,Wicklow,Greystones,Republic of Ireland
143,An Blascaod Mór,,,-10.536,52.0895,Kerry,Dunquin,Republic of Ireland
144,An Bonnán Buí,https://anbonnanbui.ie,353749158868,-7.53358418684104,55.0952355866344,Donegal,Rathmullan,Republic of Ireland
145,An Builín Blasta,http://www.odonoghuesbakery.com,3539781800,-9.989789,54.223721,Mayo,Belmullet,Republic of Ireland
146,An Chéibh Bheag (Cloghmore Pier),,,-9.9472967,53.880075,Mayo,Achill Island -Acaill,Republic of Ireland
147,An Chonair (Conor Pass),,,-10.207747,52.181771,Kerry,Dingle,Republic of Ireland
148,An Club Beag,http://www.anclubbeag.ie,353749522649,-8.3599426,54.9485758,Donegal,Dungloe,Republic of Ireland
149,"An Evening of Food, Folklore and Fairies",https://irishfolktours.com/,35312188555,-6.2542657,53.3508903,Dublin,Dublin City,Republic of Ireland
150,An Fál Mór (Falmore),,,-10.085653,54.09554,Mayo,Belmullet,Republic of Ireland
151,An Fód Dubh (Blacksod Harbour),,,-10.060762,54.098875,Mayo,Blacksod,Republic of Ireland
152,An Grianan,http://www.an-grianan.ie,353419822119,-6.26566479895018,53.7556220728349,Louth,Termonfeckin,Republic of Ireland
153,An Grianan Adult Education College,https://www.an-grianan.ie,353419822119,-6.264549,53.754937,Louth,Termonfeckin,Republic of Ireland
154,An Grianán Theatre,http://www.angrianan.com,+353(0)749120777,-7.731991,54.953345,Donegal,Letterkenny,Republic of Ireland
155,An Irish Anglers World Wicklow,http://www.anirishanglersworld.com,353868697370,-6.19505022094722,53.0520549175125,Wicklow,Roundwood,Republic of Ireland
156,An Poitin Stil,http://www.louisfitzgerald.com/poitinstil,+353(0)14589244,-6.476837,53.281066,Dublin,Rathcoole,Republic of Ireland
157,An Port Mor Restaurant,http://anportmor.com,3539826730,-9.522252,53.799036,Mayo,Westport,Republic of Ireland
158,An Pucan Bar,http://www.anpucan.ie,353857704605,-9.047359,53.274567,Galway,Galway City,Republic of Ireland
159,An Sibin Equestrian Centre,http://www.irishhorseriding.com,35361927411,-8.4042105,52.980229,Clare,Whitegate,Republic of Ireland
160,An Siopa at The Mills,http://www.millsinn.ie/craft-shop-cork-hampers-food-homebaking-gifts,3532645237,-9.1706322,51.9456574,Cork,Ballyvourney,Republic of Ireland
161,An Spailpín Fánac,http://www.facebook.com/anspailpinfanac,353214277949,-8.4765482,51.8965912,Cork,Cork City,Republic of Ireland
162,An Sugan Seafood Bar & Restaurant,http://www.ansugan.com,353238833498,-8.885853,51.623167,Cork,Clonakilty,Republic of Ireland
163,An Táin Arts Centre,http://www.antain.ie,353429332332,-6.400612,54.004604,Louth,Dundalk,Republic of Ireland
164,An tSean Bheairic,http://www.falcarraghvisitorcentre.com,353749180655,-8.100882,55.137024,Donegal,Falcarragh,Republic of Ireland
165,Anam Cara Writer's and Artist's Retreat,https://www.anamcararetreat.com,3532774441,-9.9557065,51.6842538,Cork,Eyeries,Republic of Ireland
166,Ancestral Line,http://ancestralline.com,353860878762,-9.1057419,52.729145,Clare,Ballynacally,Republic of Ireland
167,Ancestral Voices Limited,http://irishancestralvoices.com,+353(0)831454548,-8.02080289059847,53.2054043732246,Offaly,Banagher,Republic of Ireland
168,Anchor Bar Dungarvan,http://www.facebook.com/anchorbardungarvan?fref=ts,3535841249,-7.618756,52.089821,Waterford,Dungarvan,Republic of Ireland
169,Anchor Tours,http://anchortours.ie/,+353(0)429371405,-6.3468879297709,54.0117268925552,Louth,Louth Village,Republic of Ireland
170,Andy's Bar & Restaurant,http://www.andysmonaghan.com,3534782277,-6.9721375,54.2477282,Monaghan,Monaghan Town,Republic of Ireland
171,Angela Woulfe Gallery,http://www.angelawoulfegallery.com/,35361310164,-8.6288578,52.6591346,Limerick,Limerick City,Republic of Ireland
172,Angela's Ashes Walking Tour,https://www.limerick.ie/discover/eat-see-do/tours/angelas-ashes-walking-tours,+353(0)833000111,-8.62566,52.6653,Limerick,Limerick City,Republic of Ireland
173,Anglers Paradise Fishing Guides,http://www.anglersparadise.org,353871229352,-9.5504684,52.1720486,Kerry,Farranfore,Republic of Ireland
174,Anglers Rest,http://theanglersrest.ie/,+353(0)18208314,-6.358864,53.359149,Dublin,Dublin City,Republic of Ireland
175,Anglers Rest Bar,https://www.facebook.com/pages/category/Bar/Anglers-Rest-Bar-148218728527206,3539543628,-9.9644048,53.5889263,Galway,Renvyle,Republic of Ireland
176,Angling at Jerpoint Park,http://jerpointpark.com/activities-events/fishing-2/,+353(0)866061449,-7.166836,52.512917,Kilkenny,Thomastown,Republic of Ireland
177,Angling Ballinlough,,+353(0)2641222,-9.15483689279705,51.5804761368337,Cork,Leap,Republic of Ireland
178,Angling Ballyshannon District,,+353(0)719841350,-8.46304148183724,54.4606885449987,Sligo,Mullaghmore,Republic of Ireland
179,Angling Ballyshunock Reservoir,,,-7.34221,52.225983,Waterford,Kilmacthomas,Republic of Ireland
180,Angling Belturbet,,+353(0)494331942,-7.43472900793968,54.1009968037999,Cavan,Belturbet,Republic of Ireland
181,Angling Bleach Lough,http://www.bleachloughanglers.ie,,-8.81276636800171,52.6168495261355,Limerick,Kildimo,Republic of Ireland
182,Angling Bohernabreena Reservoirs,,+353(0)14543444,-6.284188,53.340054,Dublin,Tallaght,Republic of Ireland
183,Angling Cloonee System,,+353(0)646684205,-9.74959805606923,51.8181618012555,Kerry,Kenmare,Republic of Ireland
184,Angling in Lough Boora,http://www.loughboora.com/things-to-do/angling/,+353(0)579340010,-7.73017937648581,53.2188683440708,Offaly,Tullamore,Republic of Ireland
185,Angling In The Barony Of Erris,,+353(0)9782292,-9.98892,54.2237,Mayo,Belmullet,Republic of Ireland
186,Angling Middle Lee,,+353(0)2641222,-8.9637,51.906862,Cork,Macroom,Republic of Ireland
187,Angling Services Ireland,http://www.anglingservicesireland.com,353866011878,-8.2868153,53.9835159,Roscommon,Boyle,Republic of Ireland
188,Angling White Lake,,8934884(0)86-8934884,-7.30451437128095,53.6693383921237,Westmeath,Castlepollard,Republic of Ireland
189,Angsana Spa at The Brehon,https://www.thebrehon.com/en/angsana-spa-killarney/,353646623980,-9.5044579,52.0459256,Kerry,Killarney,Republic of Ireland
190,Animal Magic – Falconry and Conservation,https://www.facebook.com/pages/Animal-Magic-Wildlife-Rescue/225058377509681,+353(0)6398777,-8.56227956923772,52.4013104884045,Limerick,Kilmallock,Republic of Ireland
191,Ann McDonald’s Upper Deck Café,https://www.facebook.com/annmcdonaldscafe,35351425391,-6.9436031,52.3954961,Wexford,New Ross,Republic of Ireland
192,Annagh Church,,353667122522,-9.742521,52.248165,Kerry,Tralee,Republic of Ireland
193,Annaharvey Farm Cookery School,http://www.annaharveyfarm.ie,353579343544,-7.398389,53.249783,Offaly,Tullamore,Republic of Ireland
194,Annaharvey Farm Equestrian Centre,http://www.annaharveyfarm.ie,353579343544,-7.39603,53.252068,Offaly,Tullamore,Republic of Ireland
195,Annalee Restaurant,http://www.hotelkilmore.ie/annalee-restaurant.html,353494332288,-7.3223043,53.9865713,Cavan,Cavan Town,Republic of Ireland
196,Annaloughan Loop,http://www.irishtrails.ie/Trail/Annaloughan-loop/488/,+353(0)429352111,-6.18602350592071,54.0379000768116,Louth,Carlingford,Republic of Ireland
197,Annemarie Bourke Studio Gallery,https://www.annemariebourke.com/,35361410510,-8.6293925,52.6613024,Limerick,Limerick City,Republic of Ireland
198,Annes Grove Miniature Castle,https://www.irishlandmark.com/property/annes-grove-miniature-castle,35316704733,-8.4757718,52.2002048,Cork,Castletownroche,Republic of Ireland
199,Annestown Beach ,,35351875823,-7.2727997,52.1391984,Waterford,Annestown,Republic of Ireland
200,Anocht Restaurant at Kilkenny Design Centre,https://anochtrestaurant.ie,353567722118,-7.250052,52.6493762,Kilkenny,Kilkenny City,Republic of Ireland
201,Aperitif - Wine & Tapas Bar,http://www.aperitifkinsale.com,353214772209,-8.52417533685332,51.7057512682578,Cork,Kinsale,Republic of Ireland
202,Aphrodite Hills Spa at the Kinsale Hotel,https://www.kinsalehotelandspa.ie/spa.html,353214706625,-8.4654576,51.6986259,Cork,Kinsale,Republic of Ireland
203,"Applied Language Centre, University College Dublin",http://www.ucd.ie/alc,+353(0)17167900,-6.220299,53.306327,Dublin,Belfield,Republic of Ireland
204,Après Tea,http://aprestea.net,353851417240,-9.0994848,54.2114822,Sligo,Enniscrone,Republic of Ireland
205,Aqua Golf,http://www.aquadome.ie,+353(0)667128899,-9.709561,52.263495,Kerry,Tralee,Republic of Ireland
206,Aqua Restaurant,http://aqua.ie/restaurant-offer/,+353(0)18320690,-6.06638090223151,53.3880061928278,Dublin,Howth,Republic of Ireland
207,Aquaventures,http://www.aquaventures.ie,3532820511,-9.37713246114331,51.4793383232169,Cork,Baltimore,Republic of Ireland
208,AquaZone at  the National Aquatic Centre,http://www.aquazone.ie,+353(0)16464300,-6.370179,53.397004,Dublin,Blanchardstown,Republic of Ireland
209,Árainn Mhór - Arranmore Island,,,-8.520194041,54.98829765,Donegal,Arranmore -Árainn Mhór,Republic of Ireland
210,Aran Bike Hire,http://www.aranbikehire.com,3539961132,-9.6654901,53.1193423,Galway,Inishmore - Árainn (Aran Islands),Republic of Ireland
211,Aran Island & Cliffs of Moher,https://doolinferry.com/,353657075555,-9.37747390175184,53.016199106306,Clare,Doolin,Republic of Ireland
212,Aran Island Ferries,https://www.aranislandferries.com,35391568903,-9.04757590588185,53.2742051404657,Galway,Rossaveal,Republic of Ireland
213,Aran Islands - 2 Day Tour Quicktours,http://www.quicktours.ie,+353(0)14659972,-6.25923664657512,53.3455498280955,Dublin,Dublin City,Republic of Ireland
214,Aran Islands - Inisheer  - Inis Oírr,http://www.discoverinisoirr.com,3539975008,-9.5281381,53.0594423,Galway,Inisheer - Inis Oírr (Aran Islands),Republic of Ireland
215,Aran Islands - Inishmore - Inis Árainn,,3539961263,-9.7315917,53.1280443,Galway,Inishmore - Árainn (Aran Islands),Republic of Ireland
216,Aran Islands - Inishmaan - Inis Meáin,,,-9.58965917016294,53.0846945641393,Galway,Inishmaan - Inis Meáin (Aran Islands),Republic of Ireland
217,Aran Islands Tour - Railtours Ireland First Class!,http://www.railtoursireland.com,+353(0)18560045,-6.250291,53.351003,Dublin,Dublin City,Republic of Ireland
218,Aran Pony & Trap,http://www.aranponytrap.com,3539961292,-9.6701839,53.1191919,Galway,Aran Islands Town,Republic of Ireland
219,Aran Sweater Market,http://www.aransweatermarket.com,353646639756,-9.6693531,53.11908,Galway,Aran Islands Town,Republic of Ireland
220,Aran Sweater Market,http://www.aransweatermarket.com,353646639756,-8.9208242,52.6926465,Clare,Shannon Airport,Republic of Ireland
221,Aran Sweater Market,http://www.aransweatermarket.com,353646639756,-9.5075729,52.0588301,Kerry,Killarney,Republic of Ireland
222,Áras an Mhuilinn Regional Comhaltas Centre,http://www.comhaltas.ie,353449330644,-7.33997729919736,53.5237695137512,Westmeath,Mullingar,Republic of Ireland
223,Áras an Uachtaráin,http://www.president.ie/en,+353(0)16770095,-6.311431,53.361618,Dublin,Dublin City,Republic of Ireland
224,Áras Inis Gluaire,http://arasinisgluaire.ie/main/,+353(0)9781079,-9.98893250511912,54.2224665540833,Mayo,Belmullet,Republic of Ireland
225,Arboretum Inspirational Gardens,https://www.arboretum.ie/,353599721558,-6.9747303,52.742058,Carlow,Leighlinbridge,Republic of Ireland
226,Arbour Hill Cemetery,https://heritageireland.ie/visit/places-to-visit/arbour-hill-cemetery/,35318213021,-6.2871173,53.3509571,Dublin,Dublin City,Republic of Ireland
227,Arbutus Garden Tours,http://www.arbutusgardentours.ie,+353(0)91882125,-6.29209543788909,53.3656392193716,Dublin,Ranelagh,Republic of Ireland
228,Architectural Furniture,http://www.architectural-furniture.com,353419827124,-6.2839232,53.717798,Louth,Drogheda,Republic of Ireland
229,Architectural History Ireland,https://www.riai.ie/discover-architecture/architecture-tours,+353(0)16761703 ,-6.2473358,53.3399625,Dublin,Dublin City,Republic of Ireland
230,Ard Bia at Nimmos,http://www.ardbia.com,35391561114,-9.0540644,53.2697959,Galway,Galway City,Republic of Ireland
231,Ard Na Breatha Restaurant,http://www.ardnabreatha.com,353749722288,-8.101196,54.662845,Donegal,Donegal Town,Republic of Ireland
232,Ard na Gaoithe - Ardnageeha Loop Walk,http://www.irishtrails.ie/Trail/Ard-na-Gaoithe---Ardnageeha-loop/223/,,-9.28800408924667,53.5403754959373,Mayo,Cong,Republic of Ireland
233,Ard Nahoo,https://www.ardnahoo.com/,353719134939,-8.296866,54.243036,Leitrim,Dromahair,Republic of Ireland
234,Ardaire Springs Angling Centre,http://www.ardairesprings.com,353878128937,-7.2271468,52.3112196,Kilkenny,Mooncoin,Republic of Ireland
235,Ardamine Beach,,,-6.2263824586919,52.6438697278524,Wexford,Courtown,Republic of Ireland
236,Ardara Heritage Centre,http://ardara.ie/tag/heritage-centre,353872424590,-8.4126667,54.762,Donegal,Ardara,Republic of Ireland
237,Ardcavan Coaches,http://www.ardcavan.com,+353(0)539122561,-6.447715,52.366723,Wexford,Wexford Town,Republic of Ireland
238,Ardee Golf Club,http://www.ardeegolfclub.com,353416853227,-6.5478622,53.8620033,Louth,Ardee,Republic of Ireland
239,Ardfert Cathedral,https://heritageireland.ie/visit/places-to-visit/ardfert-cathedral/,353667134711,-9.7816297,52.3285243,Kerry,Ardfert,Republic of Ireland
240,Ardfert Indoor Market,https://www.iomst.ie/market/ardfert-indoor-market,353879209673,-9.782158,52.328152,Kerry,Ardfert,Republic of Ireland
241,Ardgillan Castle and Victorian Gardens,https://ardgillancastle.ie,35318492212,-6.1616584,53.5817894,Dublin,Balbriggan,Republic of Ireland
242,Ardgillan Castle Café,http://facebook.com/ardgillancastle,+353(0)18492212,-6.16,53.586,Dublin,Balbriggan,Republic of Ireland
243,Ardgillan Demesne,http://www.facebook.com/ardgillancastle,+353(0)18492212,-6.15902969162262,53.5871631380011,Dublin,Balbriggan,Republic of Ireland
244,Ardgroom - Pulleen Loop,http://www.bearatourism.com/loopwalks.html,+353(0)2770054,-9.89835703693721,51.7320672187345,Cork,Ardgroom,Republic of Ireland
245,Ardkeen Market,https://www.iomst.ie/market/ardkeen-outdoor-artisan-market/,353868136770,-7.082923,52.246666,Waterford,Waterford City,Republic of Ireland
246,Ardkeen Quality Food Store,www.ardkeen.com,35351874620,-7.0821637,52.2462659,Waterford,Waterford City,Republic of Ireland
247,Ardmore Adventures,http://www.ardmoreadventures.ie,353833743889,-7.7219554,51.9512684,Waterford,Ardmore,Republic of Ireland
248,Ardmore Beach ,https://www.blueflag.global/show-site?siteId=17012,,-7.722236,51.952063,Waterford,Ardmore,Republic of Ireland
249,Ardmore Diving,http://www.waider.ie/diving,3535846577,-7.725329,51.9510741,Waterford,Ardmore,Republic of Ireland
250,Ardmore Pottery Gallery Shop,http://www.ardmorepottery.com  ,+353(0)2494152,-7.7183805,51.9494751,Waterford,Ardmore,Republic of Ireland
251,Ardmore Round Tower And Cathedral,http://roundtowers.org/ardmore/index1.htm,,-7.72603895966336,51.9486884569806,Waterford,Ardmore,Republic of Ireland
252,Ardmore Self Guided Historic Town Walk,,,-7.7161350776596,51.9490555505237,Waterford,Ardmore,Republic of Ireland
253,Ardmulchan Church,"http://www.megalithicireland.com/Ardmulchan%20Church,%20Meath.html",,-6.628602,53.6718102,Meath,Kells,Republic of Ireland
254,Ardnahinch Green Coast Beach 2019,,,-8.02114910273838,51.8537016519329,Cork,Shanagarry,Republic of Ireland
255,Ardnamona Woods,http://www.irishtrails.ie/Trail/Ard-na-Mona-Wood/527/,,-8.11054770672886,54.6534050195463,Donegal,Donegal Town,Republic of Ireland
256,Ards Coffee Tree,https://www.facebook.com/ardscoffeetree,353851008401,-7.8636751,55.1584056,Donegal,Creeslough,Republic of Ireland
257,Ards Forest Park,http://www.coillte.ie/site/ards-forest-park/,353749121139,-7.8985031,55.1554989,Donegal,Creeslough,Republic of Ireland
258,Arena 7 Leisure Complex,http://www.arena7.ie,+353(0)749128853,-7.706477,54.956663,Donegal,Letterkenny,Republic of Ireland
259,Arena School of English,http://www.arenaschool.com,+353(0)14789202,-6.26561832846871,53.3400890221908,Dublin,Dublin City,Republic of Ireland
260,The Miner's Way and Historical Trail,http://unabhan.ie/miners-way-maps,353719663033,-8.10839224344177,54.0822517869021,Roscommon,Arigna,Republic of Ireland
261,Arigna Mining Experience,https://www.arignaminingexperience.ie,353719646466,-8.120751,54.07755,Roscommon,Arigna,Republic of Ireland
262,Arkhangel Gallery,http://www.arkhangel-international.com,3536823537,-9.4848106,52.4465153,Kerry,Listowel,Republic of Ireland
263,Arkland Studio,http://www.arkland.ie,35314972885,-6.2538369,53.3258279,Dublin,Ranelagh,Republic of Ireland
264,Arklow Golf Club,http://www.arklowgolflinks.com,35340232492,-6.149669,52.789676,Wicklow,Arklow,Republic of Ireland
265,Arklow Beach,,,-6.1267809416504,52.8118598327366,Wicklow,Arklow,Republic of Ireland
266,Arklow Maritime Museum,http://www.arklowmaritimeheritage.ie,353864460784,-6.1493991,52.7985048,Wicklow,Arklow,Republic of Ireland
267,Arnotts,https://www.arnotts.ie,35318050400,-6.2631308,53.3491377,Dublin,Dublin City,Republic of Ireland
268,Aromas Café,https://www.thelandmarkhotel.com/food/aromas-cafe,353719622222,-8.0932412,53.9434489,Leitrim,Carrick-on-Shannon,Republic of Ireland
269,Arran Street East,https://arranstreeteast.ie,353838146672,-6.27049220142999,53.3483066832134,Dublin,Dublin City,Republic of Ireland
270,Arran Street East,http://arranstreeteast.ie,+353(0)18729144,-6.27049186615386,53.3483066832134,Dublin,Dublin City,Republic of Ireland
271,The Arranmore Ferry,https://thearranmoreferry.com/,353873171810,-8.4421892,54.9831354,Donegal,Arranmore -Árainn Mhór,Republic of Ireland
272,Arranmore Ferry Service,http://www.arranmoreferry.com,353749542233,-8.4418396903518,54.983102415876,Donegal,Burtonport,Republic of Ireland
273,Arranmore Island (Arainn Mor),,,-8.53629034834988,54.9963347391069,Donegal,Arranmore -Árainn Mhór,Republic of Ireland
274,Arranmore Island-Árainn Mhór,,+353(0)749520533,-8.52019404117198,54.9882976548921,Donegal,Arranmore -Árainn Mhór,Republic of Ireland
275,Art & Antiques Quarter,https://www.facebook.com/dublinsantiquequarter,35314731126,-6.273896,53.340223,Dublin,Dublin City,Republic of Ireland
276,Art and Healing Centre - Art Gallery,http://www.artandhealingcentre.ie,353862418814,-8.130578,52.809988,Tipperary,Nenagh,Republic of Ireland
277,Art at the Park,http://www.artatthepark.net,35361925975,-8.700666,52.992728,Clare,Scarriff,Republic of Ireland
278,Art tours incl. Book of Kells: Art Impressions,http://www.artimpressions.ie,+353(0)833756668,-6.25927005922444,53.3473830781906,Dublin,Dublin City,Republic of Ireland
279,Arthur Griffith,,,-6.254252,53.340122,Dublin,Dublin City,Republic of Ireland
280,Arthur Wellesley Duke Of Wellington,http://www.visitdublin.com,+353(0)16057700,-6.303231,53.349086,Dublin,Dublin City,Republic of Ireland
281,Arthur’s Way Heritage Trail,https://intokildare.ie/listings/arthurs-way/,,-6.53770077328159,53.3405030848947,Kildare,Leixlip,Republic of Ireland
282,Arthur's Bar at the Courtyard Hotel,http://www.courtyard.ie/arthurs-bar.html,353877531040,-6.4886016587219,53.3639632494802,Kildare,Leixlip,Republic of Ireland
283,Artists Gift Gallery,http://www.artistsgiftgallery.ie,353868697350,-6.263881,53.344656,Dublin,Dublin City,Republic of Ireland
284,Artzone,http://www.artzone.ie,+353(0)14990614,-6.301149,53.317293,Dublin,Dublin City,Republic of Ireland
285,Asana School of English,http://www.asanaireland.com,353669472458,-10.212643,51.950922,Kerry,Cahersiveen,Republic of Ireland
286,Ash Hill House,http://www.ashhill.com,3536398035,-8.58453351352108,52.3954062706942,Limerick,Kilmallock,Republic of Ireland
287,Ashbourne Golf Club,http://www.ashbournegolfclub.ie,35318352561,-6.3792267,53.5039088,Meath,Ashbourne,Republic of Ireland
288,Ashford Adventure Company,http://www.ashfordoutdoors.com/index.php/en,353871143040,-9.29160795242308,53.5360083951561,Mayo,Cong,Republic of Ireland
289,Ashford Castle Golf Club,https://www.ashfordcastle.com/blog/guide-golf-in-galway,353949546003,-9.285311,53.534499,Mayo,Cong,Republic of Ireland
290,Ashford Equestrian Centre,http://www.ashfordequestrian.com,353949546507,-9.2928038,53.5359919,Mayo,Cong,Republic of Ireland
291,Ashford Outdoors,http://www.ashfordoutdoors.com,353949546507,-9.2801536,53.5388177,Mayo,Cong,Republic of Ireland
292,Ashford Outdoors Cycle Tours,https://twitter.com/AshfordOutdoors,+353(0)949546507,-9.28615872944442,53.5438437221794,Mayo,Cong,Republic of Ireland
293,Ashlawn Garden Centre,https://www.facebook.com/AshlawnGardenCentre,353599721175,-6.938976,52.683384,Carlow,Bagenalstown,Republic of Ireland
294,Ashtown Stables,http://www.ashtownstables.com,35318383807,-6.3330091,53.3748696,Dublin,Dublin City,Republic of Ireland
295,Askamore Loop,,,-6.47981591932376,52.6722892104065,Wexford,Gorey,Republic of Ireland
296,Askea Country Market,https://www.facebook.com/askeacountrymarketcarlow,353717994534,-6.911562,52.835233,Carlow,Carlow Town,Republic of Ireland
297,Askeaton Castle and Franciscan Friary,http://monastic.ie/history/askeaton-franciscan-friary,35361392149,-8.975399,52.603892,Limerick,Askeaton,Republic of Ireland
298,Askeaton Pool & Leisure,https://askeaton.coralleisure.ie/,+353(0)61392570,-8.9709156,52.6008105,Limerick,Askeaton,Republic of Ireland
299,Astra Bowl,http://www.facebook.com/astra.bowl/,+353(0)494372662,-7.358907,53.989709,Cavan,Cavan Town,Republic of Ireland
300,Astropark Events,http://www.astroparkevents.ie,35318060088,-6.2290588,53.3969669,Dublin,Coolock,Republic of Ireland
301,Asylroom - Escape The Room Galway,http://www.asylroom.com,353852206513,-9.0568312,53.2712487,Galway,Galway City,Republic of Ireland
302,ATC Language & Travel,http://www.atclanguageschools.com,35312845512,-6.26330456501239,53.3412457873392,Dublin,Dublin City,Republic of Ireland
303,ATC Language & Travel,http://www.atclanguageschools.com,353112807525,-6.09555766931157,53.198578986859,Wicklow,Bray,Republic of Ireland
304,Ath Luain Restaurant - Shamrock Lodge Hotel,http://www.shamrocklodgehotel.ie/food-beverage.html,353906492601,-7.9504638,53.4215227,Westmeath,Athlone,Republic of Ireland
305,Athas Tours,http://athastours.com,+353(0)863009611,-9.0028348,53.2729435,Galway,Galway City,Republic of Ireland
306,Athassel Abbey,http://www.cashel.ie,,-7.97276417993487,52.4754859308583,Tipperary,Golden,Republic of Ireland
307,Athenry Arts and Heritage Centre,http://www.athenryheritagecentre.com,35391844661,-8.746329,53.2995236,Galway,Athenry,Republic of Ireland
308,Athenry Castle,https://www.heritageireland.ie/en/west/athenrycastle,35391844797,-8.7446178,53.2999964,Galway,Athenry,Republic of Ireland
309,Athenry Farmers Market,https://www.iomst.ie/market/athenry-farmers-market-2,353876272017,-8.7461847,53.2990862,Galway,Athenry,Republic of Ireland
310,Athenry Golf Club,http://www.athenrygolfclub.net,35391794466,-8.845527,53.282795,Galway,Athenry,Republic of Ireland
311,Athgarvan Pitch and Putt Club,http://www.facebook.com/Athgarvan-Pitch-Putt-club-1014896201863041/,+353(0)862250049,-6.79485732105718,53.1503477996662,Kildare,The Curragh,Republic of Ireland
312,Athlone Castle,http://www.athlonecastle.ie,353906442130,-7.94273064159984,53.4230818178263,Westmeath,Athlone,Republic of Ireland
313,Athlone Equestrian Centre,https://www.athlone.ie/visit/athlone-equestrian-centre/,353862433609,-7.8761284,53.4288013,Westmeath,Athlone,Republic of Ireland
314,Athlone Golf Club,http://athlonegolfclub.ie,353906492073,-7.9914465,53.4673032,Roscommon,Athlone,Republic of Ireland
315,Athlone Little Theatre,http://www.athlonelittletheatre.ie,353906474324,-7.931524,53.4234322,Westmeath,Athlone,Republic of Ireland
316,Athlone Marina,http://www.discoveringireland.com/athlone-marina/,353906478687,-7.942624,53.425363,Westmeath,Athlone,Republic of Ireland
317,Athlone Regional Sports Centre,https://www.athlonersc.ie/,353906470975,-7.921766,53.429158,Westmeath,Athlone,Republic of Ireland
318,Athlone Self-Guided Historic Town Walk,http://www.athlone.ie/,,-7.9428,53.4231,Westmeath,Athlone,Republic of Ireland
319,Athlone Towncentre Shopping Centre,https://athlonetowncentre.com/,353906484387,-7.9362431,53.423166,Westmeath,Athlone,Republic of Ireland
320,Athlone Whiskey Tours,http://athlonewhiskeytours.ie/,+353(0)852380023,-7.9406898,53.4239331,Westmeath,Athlone,Republic of Ireland
321,Athlumney Castle,http://www.discoverboynevalley.ie/boyne-valley-drive/heritage-sites/athlumney-castle-navan,353419880305,-6.675048,53.650359,Meath,Navan,Republic of Ireland
322,Athlunkard Boat Club,http://athlunkardboat.club,35361302160,-8.6185163,52.6696974,Limerick,Limerick City,Republic of Ireland
323,Athy Boat Tours,http://facebook.com/athyboattours/,+353(0)874335350,-6.98473909820564,52.9929974102248,Kildare,Athy,Republic of Ireland
324,Athy Golf Club,http://www.athygolfclub.com,353598631729,-6.962445,53.008327,Kildare,Athy,Republic of Ireland
325,Athy Heritage Centre & Museum,http://www.athyheritagecentre-museum.ie,353598633075,-6.9832541,52.9916784,Kildare,Athy,Republic of Ireland
326,Athy Rowing & Canoeing,https://athy-rowing-canoeing-club.business.site,353879971842,-6.98384118553331,52.9913752531638,Kildare,Athy,Republic of Ireland
327,Athy Self Guided Historic Town Walk,,,-6.98440233593749,52.9886095784553,Kildare,Athy,Republic of Ireland
328,Atlantic Air Adventures,https://atlanticairadventures.com,35361363687,-8.870205,52.713908,Clare,Shannon Town,Republic of Ireland
329,Atlantic Boating Services,http://www.atlanticboat.ie,3532822145,-9.4021158,51.519935,Cork,Skibbereen,Republic of Ireland
330,Atlantic Charters,http://www.atlanticcharters.ie,+353(0)872575269,-8.52257059787513,51.7062294184054,Cork,Kinsale,Republic of Ireland
331,Atlantic Coastal Cruises,https://www.atlanticcoastalcruises.com,353872214497,-8.4449878,54.6327034,Donegal,Killybegs,Republic of Ireland
332,Atlantic Ireland Arts and Adventure Holidays,http://www.celtichorizons.ie,+353(0)872662920,-10.1242982,52.2040594,Kerry,Castlegregory,Republic of Ireland
333,Atlantic Irish Seaweed,http://www.atlanticirishseaweed.com,353861062110,-10.0995294,51.7690125,Kerry,Caherdaniel,Republic of Ireland
334,Atlantic Language Galway,http://www.atlanticlanguage.com,35391566053,-9.046042,53.27404,Galway,Galway City,Republic of Ireland
335,Atlantic Motorcycle Hire Ireland,http://www.atlanticmotorcyclehires.com,+44(0)2868658197,-9.15138098860166,54.1141220315105,Mayo,Ballina,Republic of Ireland
336,Atlantic Road Tours Dingle,http://atlanticroadtoursdingle.com/,+353(0)871612023,-10.2781443471436,52.1387967835848,Kerry,Dingle,Republic of Ireland
337,Atlantic School of English & Active Leisure,http://www.atlantic-english.com,3532828943,-9.54547782209011,51.5269428838321,Cork,Schull,Republic of Ireland
338,Atlantic Sea Kayaking,http://www.atlanticseakayaking.com,3532821058,-9.1679116,51.5328949,Cork,Skibbereen,Republic of Ireland
339,Atlantic Sheepdogs,https://www.facebook.com/atlanticsheepdogs,353857402836,-8.545451,54.390125,Sligo,Grange,Republic of Ireland
340,Atlantic Way Sailing,http://www.atlanticwaysailing.com,+353(0)91555960,-9.04947254971209,53.2721788149031,Galway,Galway City,Republic of Ireland
341,Atlantic Whale and Wildlfe Tours,http://atlanticwhaleandwildlifetours.com,+353(0)877744401,-8.71075787419659,51.6355545863745,Cork,Courtmacsherry,Republic of Ireland
342,Atlas Language School,http://www.atlaslanguageschool.com,+353(0)14782845,-6.26460076594549,53.3302742676102,Dublin,Dublin City,Republic of Ireland
343,Attymass Salmon Fishery,,+353(0)949258151,-9.15507203231098,54.1151859688673,Mayo,Ballina,Republic of Ireland
344,Auburn Lodge Oyster Restaurant,https://www.auburnlodge.com/oyster-restaurant.html,353656821247,-8.9806526,52.865498,Clare,Ennis,Republic of Ireland
345,Aughnanure Castle,http://www.heritageireland.ie/en/west/aughnanurecastle,35391552214,-9.2757515,53.4187829,Galway,Oughterard,Republic of Ireland
346,Aughrim Country Fair,https://www.facebook.com/Aughrim-Town-Country-Market-123002354415422/,353876254390,-6.333473,52.853624,Wicklow,Aughrim,Republic of Ireland
347,Aughris Head,,,-8.7570235,54.268943,Sligo,Templeboy,Republic of Ireland
348,Augustinian Abbey Adare,http://www.ireland.anglican.org,35361396227,-8.784585,52.567928,Limerick,Adare,Republic of Ireland
349,Augustinian Abbey Lorrha,"http://www.megalithicireland.com/Lorrha%20Augustinian%20Abbey,%20Tipperary.html",,-8.12199915933229,53.0894139159089,Tipperary,Lorrha,Republic of Ireland
350,Auld Dubliner,http://www.aulddubliner.ie/,+353(0)16770527,-6.26198,53.34555,Dublin,Dublin City,Republic of Ireland
351,Aultaghreagh Cottage Garden,http://www.aultaghreaghcottagegarden.com,353238855307,-9.0839136372774,51.7779211344705,Cork,Dunmanway,Republic of Ireland
352,Aunty Lena's Bar,http://www.auntylenas.com,35361396114,-8.790988,52.564184,Limerick,Adare,Republic of Ireland
353,Aura Drogheda Leisure Centre,http://www.auraleisure.ie/drogheda,+353(0)419874478,-6.374773,53.712987,Louth,Drogheda,Republic of Ireland
354,Aura Dundalk Leisure Centre,http://www.auraleisure.ie/dundalk,+353(0)429336230,-6.387476,54.003193,Louth,Dundalk,Republic of Ireland
355,Aura Leisure Centre Trim,http://www.auraleisure.ie/trim,353469438730,-6.7997432,53.5535922,Meath,Trim,Republic of Ireland
356,Aura Leisure Link Navan,http://www.auraleisure.ie/navan,+353(0)469079950,-6.695686,53.665765,Meath,Navan,Republic of Ireland
357,Aura Leitrim Leisure Centre,https://www.auraleisure.ie,353719671771,-8.0812243,53.9484591,Leitrim,Carrick-on-Shannon,Republic of Ireland
358,Aura Letterkenny Leisure Complex,http://www.auraleisure.ie/letterkenny,353749106422,-7.7502521,54.9460448,Donegal,Letterkenny,Republic of Ireland
359,Aura Trim Leisure Centre,http://www.auraleisure.ie/trim,+353(0)469438730,-6.800077,53.553449,Meath,Trim,Republic of Ireland
360,Aura Tullamore Leisure Centre,http://www.auraleisure.ie/tullamore,+353(0)579329398,-7.47194111241151,53.2689991335274,Offaly,Tullamore,Republic of Ireland
361,Aura Youghal Leisure Centre,http://www.auraleisure.ie/youghal,3532491614,-7.858816,51.935815,Cork,Youghal,Republic of Ireland
362,Austies Bar and Restaurant,https://www.facebook.com/Austies-Bar-and-Restaurant-601742039943467,353719117786,-8.564183,54.304835,Sligo,Rosses Point,Republic of Ireland
363,Authentic Ireland,http://www.authenticireland.com,+353(0)12933088,-6.21599705967776,53.2755896475813,Dublin,Sandyford,Republic of Ireland
364,Avanti Language Institute,http://www.avantilanguage.com,35345881661,-6.6639825,53.2178696,Kildare,Naas,Republic of Ireland
365,Avenue Cafe and Restaurant,http://avenuecafe.ie,35316285003,-6.5888288,53.3820621,Kildare,Maynooth,Republic of Ireland
366,Avis Rent A Car,http://www.avis.ie,+353(0)214281111,-8.472305,51.900071,Cork,Cork City,Republic of Ireland
367,Avoca Kilmacanoge,https://www.avoca.com/en/stores-and-cafes/kilmacanoge,35312746900,-6.142179,53.172982,Wicklow,Bray,Republic of Ireland
368,Avoca Handweavers Dublin City Centre,https://www.avoca.com/en/stores-and-cafes/suffolk-street,35316774215,-6.259913,53.343547,Dublin,Dublin City,Republic of Ireland
369,Avoca Handweavers Enniskerry,http://www.avoca.ie,35312046066,-6.186874,53.184858,Wicklow,Enniskerry,Republic of Ireland
370,Avoca Handweavers Letterfrack,http://www.avoca.ie,3539541058,-9.968032,53.549997,Galway,Letterfrack,Republic of Ireland
371,Avoca Handweavers Molls Gap,https://www.avoca.com/en/stores-and-cafes/molls-gap,353646634720,-9.6578619,51.9384107,Kerry,Killarney,Republic of Ireland
372,Avoca Painting School,http://avocapaintingschool.com,35340235555,-6.227528,52.880018,Wicklow,Avoca,Republic of Ireland
373,Avoca Red Kite Loop,http://www.irishtrails.ie/trail/Avoca-Red-Kite-Loop/694/,,-6.21209726779296,52.8600239151688,Wicklow,Avoca,Republic of Ireland
374,Avoca Studio Gallery,https://avocagallery.com/welcome-to-the-avoca-painting-school/,35340235555,-6.2272958,52.8800149,Wicklow,Avoca,Republic of Ireland
375,Avoca Walking Tours,http://avocawalkingtours.ie/,+353(0)894822519,-6.23306379331996,52.8849899787169,Wicklow,Avoca,Republic of Ireland
376,Avondale Forest Park - Cairn Walk,http://www.irishtrails.ie/Trail/Avondale-Forest-Park---Cairn-Walk/304/,,-6.22702424229738,52.9167113439159,Wicklow,Rathdrum,Republic of Ireland
377,Avondale Forest Park - Centenary Trail,http://www.coillteoutdoors.ie,,-6.22653773389891,52.9164790018516,Wicklow,Rathdrum,Republic of Ireland
378,Avondale House and Forest Park,https://visitwicklow.ie/item/avondale-house-forest-park,35340446111,-6.2226009,52.9117801,Wicklow,Rathdrum,Republic of Ireland
379,Awaken Adventures,https://awakenadventures.ie,353838424580,-7.6917496,54.9651529,Donegal,Letterkenny,Republic of Ireland
380,Away to Me Sheepdog Demonstrations,https://awaytome.ie/,353872366380,-8.7820907,54.6671713,Donegal,Glencolmcille,Republic of Ireland
381,Awesome Walls Climbing Centre Dublin,http://awesomewalls.ie/dublin,35318800088,-6.31598,53.4016904,Dublin,Fingal,Republic of Ireland
382,AWOL Paintball Games & Adventure Activities,http://www.letsgoawol.com,3534786224,-7.005443,54.412232,Monaghan,Derrylevick,Republic of Ireland
383,Axe Junkies,http://axejunkies.ie,085 822 758,-7.11515889913971,52.2621711567404,Waterford,Waterford City,Republic of Ireland
384,Azzurro Restaurant,https://azzurro.ie,35351383141,-6.9949201,52.1533873,Waterford,Dunmore East,Republic of Ireland
385,B Bar,,+353(0)16185600,-6.248997,53.330533,Dublin,Dublin City,Republic of Ireland
386,Bá Bhaile Uí Thiarnáin (Ballyhiernan Bay),,,-7.7277017,55.247075,Donegal,Fanad,Republic of Ireland
387,Bá Fhionntrá (Fintragh Bay),,,-8.4882206,54.635294,Donegal,Killybegs,Republic of Ireland
388,Bá na Scealg (Ballinskelligs Bay),,,-10.27351,51.820965,Kerry,Ballinskelligs,Republic of Ireland
389,Baan Thai Restaurant - Ballsbridge,http://www.baanthai.ie/ballsbridge/home.php,+353(0)16608833,-6.230224,53.328989,Dublin,Dublin City,Republic of Ireland
390,Backs To The Wall Tours,http://backstothewalltours.com/,+353(0)863502360,-7.69602635109254,52.4661123394815,Tipperary,Fethard,Republic of Ireland
391,Bad Ass Cafe,http://www.badassdublin.com,+353(0)16753005,-6.26286739077261,53.3453564313351,Dublin,Dublin City,Republic of Ireland
392,Baginbun Beach,,,-6.929462,52.123762,Wexford,Fethard On Sea,Republic of Ireland
393,Bahana Forest,http://www.coillteoutdoors.ie/,,-6.9216297778321,52.5076031689915,Carlow,Saint Mullins,Republic of Ireland
394,Bailey’s Bistro at Clanard Court Hotel,https://www.clanardcourt.ie/baileys-bar-bistro.html,353598640666,-6.9585671,52.9985655,Kildare,Athy,Republic of Ireland
395,Bailey's Bar at Clanard Court Hotel,https://www.clanardcourt.ie/baileys-bar.html,353598640666,-6.9585671,52.9985655,Kildare,Athy,Republic of Ireland
396,Bailieborough Swimming Pool & Leisure Centre,http://www.bailieboroughleisurecentre.com,+353(0)429666644,-6.973205,53.914649,Cavan,Bailieborough,Republic of Ireland
397,Baily's Corner,https://www.facebook.com/BailysCorner/?rf=272087776215136,353667126230,-9.70390853240201,52.2692378348724,Kerry,Tralee,Republic of Ireland
398,Bainnlann Chul na nGabhar Art Gallery,https://www.facebook.com/bainnlann/,3535841933,-7.6247721,52.0897542,Waterford,Dungarvan,Republic of Ireland
399,Baja Bikes,https://bajabikes.eu/en/sightseeing-tours-dublin,+353(0)646252199,-6.26403377739825,53.3415441245953,Dublin,Dublin City,Republic of Ireland
400,Bakers Corner,http://www.johnbradygroup.ie/,+353(0)12807782,-6.15778,53.280639,Dublin,Dún Laoghaire,Republic of Ireland
401,Baking Academy of Ireland,http://www.bakingacademyireland.ie,+00353(0)18451214,-6.379362,53.357996,Dublin,Palmerstown,Republic of Ireland
402,Balbriggan Beach,,+353(0)18400077,-6.18241185874471,53.6120165295749,Dublin,Balbriggan,Republic of Ireland
403,Balbriggan Fish and Farmers Market,,+353(0)18413100,-6.356669,53.716601,Dublin,Balbriggan,Republic of Ireland
404,Balbriggan Golf Club,http://www.balbriggangolfclub.com,35318412229,-6.1828485,53.5957149,Dublin,Balbriggan,Republic of Ireland
405,Balcarrick Golf Club,http://www.balcarrickgolfclub.com,35318436957,-6.129113,53.4716126,Dublin,Donabate,Republic of Ireland
406,Balheary Open Golf Course,https://www.facebook.com/balhearypar3,35318409655,-6.2237173,53.4794141,Dublin,Swords,Republic of Ireland
407,Balheary Shooting,http://www.balhearyshootinggrounds.com,35318078814,-6.273701,53.4906652,Dublin,Swords,Republic of Ireland
408,Balla Golf Club,http://www.ballagolfclub.com,353873814440,-9.1397022,53.8050442,Mayo,Balla,Republic of Ireland
409,Ballad Tours Dublin,http://balladtours.com,+353(0)830415967,-6.26912949888708,53.3449534873316,Dublin,Swords,Republic of Ireland
410,Ballagh Studio,http://www.rosharvey.com/,353749370684,-7.2898999,55.3145175,Donegal,Malin,Republic of Ireland
411,Ballaghaderreen Cathedral,http://www.achonrydiocese.org,353949860011,-8.577979,53.903133,Roscommon,Ballaghaderreen,Republic of Ireland
412,Ballaghaderreen Golf Course,http://www.ballaghaderreengolfclub.com,353871463628,-8.5731759,53.8753704,Roscommon,Ballaghaderreen,Republic of Ireland
413,Ballaghmore Castle,"http://www.megalithicireland.com/Ballaghmore%20Castle,%20Laois.html",35350521453,-7.707129,52.9597586,Laois,Borris In Ossory,Republic of Ireland
414,Ballard Organic Farm,http://www.ballardorganicfarm.ie,353872557679,-7.5560912,53.355812,Westmeath,Kilbeggan,Republic of Ireland
415,Ballina Farmers Market,https://www.facebook.com/ballinafarmersmarket1,353868507424,-9.155585,54.115348,Mayo,Ballina,Republic of Ireland
416,Ballina Golf Club,http://www.ballina-golf.com,3539621050,-9.133831,54.108222,Mayo,Ballina,Republic of Ireland
417,Ballina Quay,,,-9.1378596,54.132133,Mayo,Ballina,Republic of Ireland
418,Ballina Self Guided Historic Town Walk,,,-9.15052,54.1129,Mayo,Ballina,Republic of Ireland
419,Ballinaboola Loop,http://visitballyhoura.com,+353(0)6391300,-8.62284930504825,52.3191319109884,Limerick,Ardpatrick,Republic of Ireland
420,Ballinacourty Loop,https://www.sportireland.ie/outdoors/walking/trails/glen-of-aherlow-ballinacourty-loop,+353(0)6256331,-8.16781727844727,52.4303067982048,Tipperary,Glen Of Aherlow,Republic of Ireland
421,Ballinafad Castle,http://www.megalithicireland.com/Ballinafad%20Castle.html,,-8.335818,54.0259909,Sligo,Ballinafad,Republic of Ireland
422,Ballinalacken Castle Country House and Restaurant,https://www.ballinalackencastle.com,353863613719,-9.3382904,53.0465068,Clare,Doolin,Republic of Ireland
423,Ballinamore Golf Club,http://www.facebook.com/BallinamoreGolfClub,353719645951,-7.8335866,54.0556016,Leitrim,Ballinamore,Republic of Ireland
424,Ballinamuck Bog Loop,http://www.irishtrails.ie/Trail/Ballinamuck---Bog-Walk/139/,,-7.71748294931976,53.8668094562941,Longford,Ballinamuck,Republic of Ireland
425,Ballinamuck Visitor Centre,http://visitlongford.ie/listings/ballinamuck-battlefield-visitors-centre,353879613312,-7.716717,53.865444,Longford,Ballinamuck,Republic of Ireland
426,Ballinascorney Golf Club,http://www.ballinascorneygolfclub.com,35314937755,-6.2794866,53.2648838,Dublin,Rathfarnham,Republic of Ireland
427,Ballinasloe Golf Club,http://www.ballinasloegolfclub.ie,353909642126,-8.2411449,53.3034923,Galway,Ballinasloe,Republic of Ireland
428,Ballinastoe and Lower Vartry Reservoir Slí na Sláinte,http://www.irishheart.ie/iopen24/walking-routes-t-8_197_200_208_210.html,,-6.20224303535156,53.0912329981869,Wicklow,Roundwood,Republic of Ireland
429,Ballinastoe Golf Club,http://www.ballinastoegolfclub.com,35312818480,-6.217433,53.105624,Wicklow,Roundwood,Republic of Ireland
430,Ballinastoe Mountain Bike Trail,http://www.irishtrails.ie/Trail/Ballinastoe-Mountain-Bike-Trail/311/,,-6.21388196574742,53.1103925330322,Wicklow,Roundwood,Republic of Ireland
431,Ballinastoe Slí,http://trails.ie/map.php?keyword=ballinastoe,,-6.226409,53.1092776,Wicklow,Roundwood,Republic of Ireland
432,Ballincollig Coaches,,+353(0)214873828,-8.627274,51.892218,Cork,Inniscarra,Republic of Ireland
433,Ballincollig Farmers' Market,https://www.facebook.com/thefarmersmarketballincollig,353863623696,-8.594319,51.88853,Cork,Ballincollig,Republic of Ireland
434,Regional Park Ballincollig,https://www.facebook.com/regparkcork/,353214924000,-8.59025367889399,51.8933234498262,Cork,Ballincollig,Republic of Ireland
435,Ballindoon Abbey,http://www.megalithicireland.com/Ballindoon%20Priory.html,353719161201,-8.3232664669314,54.0849213343069,Sligo,Ballymote,Republic of Ireland
436,Ballineanig - Ursula Tramski Ceramics,http://www.smashingpots.com,353669154777,-10.3926372,52.1626132,Kerry,Ballyferriter,Republic of Ireland
437,Ballinesker Beach ,https://www.blueflag.global/show-site?siteId=6627,,-6.357798,52.3994171,Wexford,Castlebridge,Republic of Ireland
438,Ballinlough Castle Golf Club,http://www.ballinloughcastle.ie,353469433760,-7.025624,53.636621,Westmeath,Clonmellon,Republic of Ireland
439,Ballinrobe Golf Club,http://www.ballinrobegolfclub.com,353949541118,-9.1586371,53.6487714,Mayo,Ballinrobe,Republic of Ireland
440,Ballinrobe Racecourse,http://www.ballinroberacecourse.ie,+353(0)949541811,-9.24377278388783,53.6397935076477,Mayo,Ballinrobe,Republic of Ireland
441,Ballinskelligs Beach,https://www.blueflag.global/show-site?siteId=6640,353646631633,-10.2713969,51.8239335,Kerry,Ballinskelligs,Republic of Ireland
442,Ballinteskin Par 3 Golf Course,https://www.facebook.com/ballinteskinpar3golf,35351422779,-6.940909,52.349225,Wexford,New Ross,Republic of Ireland
443,Ballintubber Abbey and The Celtic Furrow,http://www.ballintubberabbey.ie,353949030934,-9.2827569,53.7567222,Mayo,Ballintubber,Republic of Ireland
444,Ballinvillon Gardens,https://www.facebook.com/pages/category/Public-Garden/Ballinvillon-Gardens-1592140567737035/,3532761451,-9.46626,51.633693,Cork,Durrus,Republic of Ireland
445,Ballinvirick House,https://cappaghasenseofplace.com/historical-houses/ballinvirick-house,353872559216,-8.89948176030271,52.5741161351463,Limerick,Askeaton,Republic of Ireland
446,Ballitore Library & Quaker Museum,http://www.kildare.ie/Library/Library/BallitoreLibrary,353598623344,-6.814924,53.009722,Kildare,Ballitore,Republic of Ireland
447,Ballyalla Lake Green Coast Award 2019,http://cleancoastsireland.org,,-8.97120507511966,52.8769993844156,Clare,Ennis,Republic of Ireland
448,Ballybeg Augustinian Priory,https://buttevantheritage.ie/poi/ballybeg-priory/,,-8.6698297,52.2195337,Cork,Buttevant,Republic of Ireland
449,Ballybeg Loop,,,-6.48000903837283,52.6721981308321,Wexford,Gorey,Republic of Ireland
450,Ballybofey and Stranorlar Golf Club,http://www.ballybofeyandstranorlargolfclub.ie,353749131093,-7.7562815,54.8092852,Donegal,Ballybofey,Republic of Ireland
451,"Ballyboy House, Garden & Woodlands",https://www.garden.ie/gardenstosee/ballyboy-house/,+35352 7465297,-7.9712781,52.2823963,Tipperary,Clogheen,Republic of Ireland
452,Ballybunion Beach,,,-9.6769166,52.511304,Kerry,Ballybunion,Republic of Ireland
453,Ballybunion Cliff Walk,http://www.irishtrails.ie/Trail/Ballybunion-Loops---Cliff-Walk/604/,+353(0)667121288,-9.67172804668427,52.5235108653928,Kerry,Ballybunion,Republic of Ireland
454,Ballybunion Crazy Golf,http://www.ballybunionhomes.com/crazy_golf.htm,3536827882,-9.657018,52.4952242,Kerry,Ballybunion,Republic of Ireland
455,Ballybunion Golf Club,http://www.ballybuniongolfclub.ie,3536827146,-9.676336,52.495087,Kerry,Ballybunion,Republic of Ireland
456,Ballybunion Health and Leisure Centre,http://ballybunionleisure.ie/,+353(0)6828111,-9.675254,52.509391,Kerry,Ballybunion,Republic of Ireland
457,Ballybunion Lahardane Walk,http://www.irishtrails.ie/Trail/Ballybunion-Loops---Lahardane-Hill-Walk/608/,+353(0)667121288,-9.65311650720219,52.5081260316832,Kerry,Ballybunion,Republic of Ireland
458,Ballybunion North Beach,https://www.blueflag.global/show-site?siteId=6641,353667121288,-9.68107243784514,52.5050716659474,Kerry,Ballybunion,Republic of Ireland
459,Ballybunion Seaweed Baths,https://www.ballybunion.ie/things-to-do/attractions/ballybunion-seaweed-baths.html,3536827469,-9.6748996,52.5136158,Kerry,Ballybunion,Republic of Ireland
460,Ballybunion South Beach ,https://www.blueflag.global/show-site?siteId=6642,353667121288,-9.6849911116995,52.4908521737982,Kerry,Ballybunion,Republic of Ireland
461,Ballybunion 'Walking the Beach' Looped Walk,http://www.irishtrails.ie/Trail/Ballybunion-Loops---Beach-Walk/607/,+353(0)667121288,-9.67172770562618,52.5235018831357,Kerry,Ballybunion,Republic of Ireland
462,Ballycarbery Castle,https://www.theringofkerry.com/ballycarbery-castle,353646631633,-10.2586267,51.9489036,Kerry,Cahersiveen,Republic of Ireland
463,Ballycastle Bike Hire and Ceide Coast Tours,http://facebook.com/Ceidecoast/,353863225128,-9.36853776130727,54.2791080616063,Mayo,Ballycastle,Republic of Ireland
464,Ballyconnell Canal Loop,http://www.irishtrails.ie/Trail/Ballyconnell---Canal-loop/70/,,-7.5831795308502,54.1161665453188,Cavan,Ballyconnell,Republic of Ireland
465,Ballycotton Island Lighthouse Tours,http://www.ballycottonislandlighthousetours.com/,353873963998,-8.0021572,51.8269325,Cork,Ballycotton,Republic of Ireland
466,Ballycotton Sea Adventures,http://ballycottonseaadventures.com,+353(0)873963998,-8.0017690505415,51.8268504377409,Cork,Ballycotton,Republic of Ireland
467,Ballycross Apple Farm,https://www.ballycross.com/,353539135160,-6.570994,52.224801,Wexford,Bridgetown,Republic of Ireland
468,Ballycuggaran Crag Wood Walk,http://www.irishtrails.ie/Trail/Ballycuggaran---Crag-Wood-Walk/183/,,-8.46537871203918,52.8374898140116,Clare,Killaloe,Republic of Ireland
469,Ballycuggeran Beach,https://www.blueflag.global/show-site?siteId=6616,353656821616,-8.47117738244629,52.8413822914818,Clare,Killaloe,Republic of Ireland
470,Ballycumber Loop,http://www.irishtrails.ie/Trail/Ballycumber-loop/398/,,-6.46419554011366,52.7990486241438,Wicklow,Tinahely,Republic of Ireland
471,Ballyelland Pottery,http://www.ballyellandpottery.ie,353872029730,-6.44956759259037,52.3836432229428,Wexford,Castlebridge,Republic of Ireland
472,Ballyhack Castle,http://www.heritageireland.ie/en/south-east/ballyhackcastle,35351389468,-6.9673172,52.2459479,Wexford,Ballyhack,Republic of Ireland
473,Ballyhannon Castle,http://www.rentanirishcastle.com/history,353656825640,-8.9083002,52.8014182,Clare,Quin,Republic of Ireland
474,Ballyhass Lakes,http://www.ballyhasslakes.ie,3532227773,-8.7998652,52.1693233,Cork,Mallow,Republic of Ireland
475,Ballyhass Wake Park,http://www.ballyhasswakepark.ie,3532227773,-8.79650263123176,52.1697692652802,Cork,Mallow,Republic of Ireland
476,Ballyhaunis Golf Club,https://www.facebook.com/ballyhaunisgolfclub/,353949630014,-8.7683674,53.7942932,Mayo,Ballyhaunis,Republic of Ireland
477,Ballyhealy Beach Green Coast Award 2019,http://www.greencoast.org/gca,,-6.54021497821395,52.1851374701637,Wexford,Kilmore Quay,Republic of Ireland
478,Ballyheige Beach,,,-9.8356122,52.388788,Kerry,Ballyheigue,Republic of Ireland
479,Ballyheigue Beach ,https://www.blueflag.global/show-site?siteId=6643,353667121288,-9.8345312,52.3873514,Kerry,Ballyheigue,Republic of Ireland
480,Ballyheigue Castle Golf Course,http://www.ballyheiguecastlegolfclub.com,353667133555,-9.83988910317998,52.3931008712821,Kerry,Ballyheigue,Republic of Ireland
481,Ballyhernan Beach Green Coast 2019,http://www.beachawards.ie,,-7.69933889313894,55.2008221619694,Donegal,Fanad,Republic of Ireland
482,Ballyhist Garden,https://tipperary.com/listings/ballyhist-garden/,353527466788,-7.87202822279705,52.315292519554,Tipperary,Ardfinnan,Republic of Ireland
483,Ballyhoura - Attychraan Loop,http://visitballyhoura.com,+353(0)6391300,-8.22652895813584,52.2945679532137,Limerick,Kilbeheny,Republic of Ireland
484,Ballyhoura - Ballyhourigan Woods Loop,http://www.irishtrails.ie,,-8.39928477639,52.6549120925009,Limerick,Murroe,Republic of Ireland
485,Ballyhoura - Blackrock Loop,http://visitballyhoura.com/index.php/2012/03/12/blackrock-loop-walk/,+353(0)6391300,-8.50832520332388,52.3203792834662,Limerick,Ardpatrick,Republic of Ireland
486,Ballyhoura - Canon Sheehan Loop,http://www.visitballyhoura.com,,-8.51636548767169,52.2768537500398,Cork,Doneraile,Republic of Ireland
487,Ballyhoura Fáilte Ltd,http://www.visitballyhoura.com,3536391300,-8.470309,52.358677,Limerick,Kilfinnane,Republic of Ireland
488,Ballyhoura Falconry,http://www.ballyhourafalconry.com,+353(0)6398777,-8.5708588,52.4035956,Limerick,Kilmallock,Republic of Ireland
489,Ballyhoura Garanne Loop,http://visitballyhoura.com,+353(0)6391300,-8.50578155525955,52.3182624862844,Limerick,Ballyhoura,Republic of Ireland
490,Ballyhoura Mountain Bike Trail Network,http://www.visitballyhoura.com,+353(0)6391300,-8.46955729370205,52.3599994277146,Limerick,Kilfinnane,Republic of Ireland
491,Ballyhoura Mountrussell Loop,http://www.trailriders.ie,+353(0)872717330,-8.50578155525955,52.3182624862844,Limerick,Ballyhoura,Republic of Ireland
492,Ballyhoura Streamhill Loop,http://visitballyhoura.com,+353(0)6391300,-8.50578155525955,52.3182624862844,Limerick,Ballyhoura,Republic of Ireland
493,Ballyhugh Art And Culture Centre Ceili Dance Workshops,http://homepage.eircom.net/~ballyhugh,353499526044,-7.58401977005167,54.1164960737484,Cavan,Ballyconnell,Republic of Ireland
494,Ballyhugh Art and Culture Centre Painting,http://homepage.eircom.net/~ballyhugh,353499526044,-7.5839647358398,54.1160737914337,Cavan,Ballyconnell,Republic of Ireland
495,Ballyjennings Stables,http://www.horsetrekkingireland.com/,353879404689,-9.16294,53.611603,Mayo,Ballinrobe,Republic of Ireland
496,Ballykeefe Distillery,http://ballykeefedistillery.ie,353877004538,-7.37639637971019,52.6018984298127,Kilkenny,Cuffesgrange,Republic of Ireland
497,Ballykeele Garden,https://www.ballinkeele.ie/,353539177436,-6.4868421,52.4432855,Wexford,Enniscorthy,Republic of Ireland
498,Ballykilcavan Brewery,http://www.ballykilcavan.com,353863484128,-7.1157709,53.0179718,Laois,Stradbally,Republic of Ireland
499,Great National Ballykisteen Golf Hotel,https://www.ballykisteenhotel.com/golf.html,3536233333,-8.222676,52.501675,Tipperary,Tipperary Town,Republic of Ireland
500,Ballyknocken Cookery School,http://www.thecookeryschool.ie,35340444627,-6.1431625,52.9769314,Wicklow,Ashford,Republic of Ireland
501,Ballylarkin Abbey Freshford - Ballylarkin Church,"http://www.megalithicireland.com/Ballylarkin%20Church,%20Kilkenny.html",,-7.427511,52.722887,Kilkenny,Freshford,Republic of Ireland
502,Ballyliffin Golf Club,http://www.ballyliffingolfclub.com,353749376119,-7.3731136,55.2924165,Donegal,Inishowen,Republic of Ireland
503,Ballyloughan Castle,http://www.megalithicireland.com/Ballyloughan%20Castle.html,,-6.8956127,52.6729963,Carlow,Bagenalstown,Republic of Ireland
504,Ballymacool Town Park,http://www.donegalcoco.ie,+353(0)749194297,-7.73671587256198,54.9511565041299,Donegal,Letterkenny,Republic of Ireland
505,Ballymalis Castle,https://www.inspirock.com/ireland/killarney/ballymalis-castle-a58204201,353646631633,-9.6924377,52.0845424,Kerry,Beaufort,Republic of Ireland
506,Ballymaloe Cookery School,http://www.cookingisfun.ie,353214646785,-8.01952949990846,51.8538519254568,Cork,Shanagarry,Republic of Ireland
507,Ballymaloe Cookery School Garden,http://www.cookingisfun.ie/,353214646785,-8.075021,51.865083,Cork,Shanagarry,Republic of Ireland
508,Ballymaloe House Restaurant,http://ballymaloe.ie/our-restaurant-cork/our-restaurant,353214652531,-8.075021,51.865083,Cork,Shanagarry,Republic of Ireland
509,Ballymascanlon Golf Course,http://www.ballymascanlon.com,353429358200,-6.35250772537415,54.0316157749154,Louth,Dundalk,Republic of Ireland
510,Ballymastocker Strand,,,-7.5952649,55.183983,Donegal,Portsalon,Republic of Ireland
511,Ballymoney Golf Course,http://www.ballymoneygolfclub.ie,353539421976,-6.2373855,52.6765938,Wexford,Gorey,Republic of Ireland
512,Ballymoney North Beach,https://www.blueflag.global/show-site?siteId=10257,,-6.20350003173826,52.676692553908,Wexford,Ballymoney,Republic of Ireland
513,Ballymoon Castle,http://carlowtourism.com/ballymoon-castle-2,,-6.9062967,52.700405,Carlow,Bagenalstown,Republic of Ireland
514,Ballymore Historic Features,http://www.ballymorehistoricfeatures.com,353868246921,-6.374547,52.598346,Wexford,Camolin,Republic of Ireland
515,Ballymorris Pottery,http://ballymorrispottery.ie,35361357118,-8.77213,52.6906707,Clare,Cratloe,Republic of Ireland
516,Ballymote and District Angling Club,http://www.ballymoteangling.com/,+353(0)868612225,-8.51710691790754,54.089861351193,Sligo,Ballymote,Republic of Ireland
517,Ballymote Castle,http://www.megalithicireland.com/Ballymote%20Castle.html,,-8.5197245,54.087625,Sligo,Ballymote,Republic of Ireland
518,Ballymun Market,http://ballymunmarket.ie/,+353(0)876981093,-6.263459,53.3954,Dublin,Dublin City,Republic of Ireland
519,Ballymurrin Quaker Farmstead,http://www.ballymurrinquakerfarmstead.eu,35340448206,-6.1066529,52.9341601,Wicklow,Redcross,Republic of Ireland
520,Ballynacarriga Castle,http://www.castles.ancientireland.org/ballinacarriga/index.htm,353238833226,-9.031648,51.705571,Cork,Dunmanway,Republic of Ireland
521,Ballynacourty Gardens,https://www.limerick.ie/discover/eat-see-do/nature-wildlife/gardens/ballynacourty-gardens,35361396409,-8.935327,52.643399,Limerick,Ballysteen,Republic of Ireland
522,Ballynahinch Castle Hotel and Gardens,https://www.ballynahinch-castle.com,3539531006,-9.862961,53.460188,Galway,Ballynahinch,Republic of Ireland
523,Ballynahinch Castle Hotel Fly Fishing Tuition,http://www.ballynahinch-castle.com,3539531006,-9.862353,53.460213,Galway,Ballynahinch,Republic of Ireland
524,Ballynahow Castle,http://irishantiquities.bravehost.com/tipperary/ballynahow/ballynahow.html,,-7.8785802,52.6930716,Tipperary,Thurles,Republic of Ireland
525,Ballynamona Court Cairn,https://www.prehistoricwaterford.com/products/ballinamona,,-7.581712,52.003606,Waterford,Halfway House,Republic of Ireland
526,Ballynatray Gardens,http://www.ballynatray.com,3532497463,-7.887014,51.99547,Waterford,Kinsalebeg,Republic of Ireland
527,Ballyneety Golf Club,http://www.ballyneetygolfclub.com,35361351881,-8.55145,52.590331,Limerick,Ballyneety,Republic of Ireland
528,Ballyorgan Looped Walk,http://www.irishtrails.ie/Trail/Ballyorgan-loop/660/,,-8.30061598378904,52.4000810291817,Limerick,Kilfinnane,Republic of Ireland
529,Ballyquin Green Coast Beaches 2019,,,-7.70269456978554,51.9713019194993,Waterford,Ardmore,Republic of Ireland
530,Ballyrafton Wood,http://www.coillteoutdoors.ie,,-7.22985378107382,52.7216886568351,Kilkenny,Kilkenny City,Republic of Ireland
531,Ballyrisode Green Coast Beach 2019,,,-9.66788012695315,51.5164822518373,Cork,Toormore,Republic of Ireland
532,Ballyroe Heights Hotel Bar & Restaurant,http://www.ballyroe.com,353667126796,-9.750987,52.296605,Kerry,Tralee,Republic of Ireland
533,Ballysaggartmore Towers,https://www.theirishplace.com/heritage/history-ballysaggartmore-towers,,-7.9631741,52.1472156,Waterford,Lismore,Republic of Ireland
534,Ballyscanlon Forest,http://www.coillteoutdoors.ie,,-7.20616368061303,52.1742547097024,Waterford,Tramore,Republic of Ireland
535,Ballyshannon Cycle Hub,,,-8.16074568267393,54.5011369852517,Donegal,Ballyshannon,Republic of Ireland
536,Ballyshannon Self Guided Historic Town Walk,,,-8.19223790663912,54.5024983008237,Donegal,Ballyshannon,Republic of Ireland
537,Ballyteigue Strand,http://www.fishingireland.net,,-6.58842914743204,52.1714991663952,Wexford,Kilmore Quay,Republic of Ireland
538,Ballytoughey Loom,http://www.clareislandhandweaver.com,3539825800,-9.9881419536732,53.7924554847732,Mayo,Clare Island,Republic of Ireland
539,Ballyvaughan Farmers Market,https://www.facebook.com/pages/Ballyvaughan-Farmers-Market/115400391827501,353868038477,-9.149232,53.115379,Clare,Ballyvaughan,Republic of Ireland
540,Ballyvaughan Pier,,,-9.153682,53.119533,Clare,Ballyvaughan,Republic of Ireland
541,Ballyvaughan Wood Loop,https://www.burren.ie/what-to-do/walking-routes/ballyvaughan-wood-loop-2,,-9.1502590813099,53.1155686664519,Clare,Ballyvaughan,Republic of Ireland
542,Balor Arts Centre,http://www.balorartscentre.com,+353(0)749131840,-7.779107,54.800265,Donegal,Ballybofey,Republic of Ireland
543,Balrath Wood,,+353(0)18358022,-6.95231592323352,53.7055705311591,Meath,Balrath,Republic of Ireland
544,Baltimore Diving and Watersports Centre,http://www.baltimorediving.com,3532820300,-9.370642,51.485258,Cork,Baltimore,Republic of Ireland
545,Baltimore Harbour,,,-9.3745726,51.482555,Cork,Baltimore,Republic of Ireland
546,Baltimore Heritage Trail,http://www.baltimore.ie,,-9.36871169570241,51.4812883030967,Cork,Baltimore,Republic of Ireland
547,Baltimore Sea Safari,http://www.baltimoreseasafari.ie,+353(0)2820753,-9.37493442061691,51.4829453096079,Cork,Baltimore,Republic of Ireland
548,Baltimore Yacht Charters,http://www.baltimoreyachtcharters.com,353872738368,-9.3546354627922,51.4884504150325,Cork,Baltimore,Republic of Ireland
549,Baltinglass Abbey,http://visitwicklow.ie/attractions/baltinglass-abbey,,-6.7102325,52.9439747,Wicklow,Baltinglass,Republic of Ireland
550,Baltinglass Golf Club,http://www.baltinglassgolfclub.ie,353596481350,-6.7173159,52.9449153,Wicklow,Baltinglass,Republic of Ireland
551,Baltinglass Outdoor Education Centre,http://www.baltinglassoec.com,353596481002,-6.706573,52.9415,Wicklow,Baltinglass,Republic of Ireland
552,Bambu Restaurant,http://www.bambu.ie,35361415424,-8.6278228,52.6625639,Limerick,Limerick City,Republic of Ireland
553,Bandon Farmers' Market,https://www.facebook.com/BandonFarmersMarket,353877921103,-8.7395436,51.7440126,Cork,Bandon,Republic of Ireland
554,Bandon Golf Club,http://www.bandongolfclub.com,+353(0)238841111,-8.775356,51.739131,Cork,Bandon,Republic of Ireland
555,Bang Restaurant,http://www.bangrestaurant.com,+353(0)14004229,-6.25401534320827,53.3383327264619,Dublin,Dublin City,Republic of Ireland
556,Banna Blue Flag Beach,https://www.blueflag.global/show-site?siteId=6644,353667121288,-9.83711544147966,52.3361326081383,Kerry,Ardfert,Republic of Ireland
557,Banna Strand Discovery Point,,,-9.8345768,52.338905,Kerry,Ardfert,Republic of Ireland
558,Bansha Wood,https://www.coillte.ie/site/bansha/,+353(0)527441453,-8.06434793204121,52.4482985172907,Tipperary,Bansha,Republic of Ireland
559,Bantry Bay Boat Hire,http://bantrybayboathire.ie,353838881102,-9.45996517190565,51.6816139680503,Cork,Bantry,Republic of Ireland
560,Bantry Bay Golf Club,http://www.bantrygolf.com,3532750579,-9.4434059,51.699677,Cork,Bantry,Republic of Ireland
561,Bantry Harbour,,,-9.4615996,51.679697,Cork,Bantry,Republic of Ireland
562,Bantry House & Garden,http://www.bantryhouse.com/the-house.html,3532750047,-9.4645065,51.6774722,Cork,Bantry,Republic of Ireland
563,Bantry Market,https://www.facebook.com/BantryMarket,3532821489,-9.4534718,51.6804707,Cork,Bantry,Republic of Ireland
564,Bantry Self Guided Historic Town Walk,,,-9.44909149655926,51.6817871330383,Cork,Bantry,Republic of Ireland
565,Bar and Restaurant At Enniscrone Golf Club,http://www.enniscronegolf.com/restaurant-2,3539636297,-9.105534,54.2073745,Sligo,Enniscrone,Republic of Ireland
566,Bar and Restaurant at the Haven Hotel,http://www.thehavenhotel.com/bar-food,35351383150,-6.9959335,52.1523848,Waterford,Dunmore East,Republic of Ireland
567,Bar Rua,http://www.instagram.com/barruadublin/,+353(0)14414425,-6.2624311,53.3410567,Dublin,Dublin City,Republic of Ireland
568,Bar Square,http://www.barsquare.ie,3539621894,-9.1566667,54.1144444,Mayo,Ballina,Republic of Ireland
569,Barán Loop,http://www.irishtrails.ie/Trail/Baran-Loop---Sheep-s-Head/465/,,-9.63155510280619,51.6020594464616,Cork,Ahakista,Republic of Ireland
570,Bard Summer School,https://bardmythologies.com/,35314904879,-9.9881419536732,53.7924554847732,Mayo,Clare Island,Republic of Ireland
571,Bargetrip.ie - Canal Boat Tour,https://www.bargetrip.ie,353876465465,-6.66452309682006,53.2485698713761,Kildare,Sallins,Republic of Ireland
572,Barley Cove,,,-9.76928,51.468821,Cork,Crookhaven,Republic of Ireland
573,Barleycove Beach ,"
https://www.blueflag.global/show-site?siteId=6645",3532821489,-9.7769335,51.4690113,Cork,Barley Cove,Republic of Ireland
574,Barleycove Surf Camp,http://www.facebook.com/barleycove.surfcamp.1,353876477855,-9.7769335,51.4690113,Cork,Barley Cove,Republic of Ireland
575,Barnageara Beach,,+353(0)18400077,-6.14835903591612,53.5866658407311,Dublin,Skerries,Republic of Ireland
576,BarneyS Kidzclub,http://barneyskidzclub.com,+353(0)656821477,-8.98192828305059,52.8625611576974,Clare,Ennis,Republic of Ireland
577,Barr An Chaladh,https://www.facebook.com/barranchaladh,35391895762,-9.04947254971209,53.2721788149031,Galway,Galway City,Republic of Ireland
578,Barr na Sráide Inn,http://www.barrnasraide.ie,353669151331,-10.270467,52.142805,Kerry,Dingle,Republic of Ireland
579,Barracuda Boat Trips,http://www.barracudaboattrips.com,353872301981,-7.952705,53.440931,Westmeath,Athlone,Republic of Ireland
580,Barratt Tours,http://www.4tours.biz,+353(0)872375986,-8.380237,52.588917,Limerick,Cappamore,Republic of Ireland
581,Barron’s Bakery and Coffee House,http://www.barronsbakery.ie,3535854045,-7.849559,52.14665,Waterford,Cappoquin,Republic of Ireland
582,Barrowline Cruisers,https://www.barrowline.ie/,353578626060,-7.099672,53.076479,Laois,Vicarstown,Republic of Ireland
583,Doyle Design Dublin,http://www.barrydoyledesign.com,35316172838,-6.2633661,53.3425059,Dublin,Dublin City,Republic of Ireland
584,Barry’s of Douglas,https://barrysofdouglas.com,353214891370,-8.4361523,51.8772217,Cork,Douglas,Republic of Ireland
585,Barry's Coaches Ltd.,http://www.barryscoaches.com,+353(0)214505390,-8.465772,51.91024,Cork,Cork City,Republic of Ireland
586,Bartons Transport,http://www.bartons.ie/,+353(0)16286338,-6.589851,53.368805,Kildare,Maynooth,Republic of Ireland
587,Base Entertainment Centre,http://www.fun.ie/base-entertainment-centre,35316544264,-6.5548467,53.3617907,Kildare,Celbridge,Republic of Ireland
588,Basecamp Action Adventure Park,http://www.basecampadventurepark.ie,353879305050,-9.14127042093378,52.551222716575,Limerick,Shanagolden,Republic of Ireland
589,Basket Barn,http://kathleenmccormickbaskets.com,353868807208,-6.9755865,53.4455553,Kildare,Carbury,Republic of Ireland
590,Bass Angling Ireland,http://bassanglingireland.ie,353877410758,-6.47509894550785,52.3439427432464,Wexford,Wexford Town,Republic of Ireland
591,Bass Fishing Wexford,http://www.bassfishingwexford.com,353862611436,-6.65900241166992,52.2374776160161,Wexford,Duncormick,Republic of Ireland
592,Bastion Restaurant,https://www.facebook.com/BastionKinsale,353871348510,-8.52250691268921,51.7060440831364,Cork,Kinsale,Republic of Ireland
593,Battle of the Boyne Visitor Centre,http://www.battleoftheboyne.ie,353419809950,-6.42334951526641,53.7233826841641,Meath,Oldbridge,Republic of Ireland
594,Battles and Barracks,http://battlesandbarracks.wix.com/info,+353(0)862187443,-6.30307499101559,53.3407957484722,Dublin,Dublin City,Republic of Ireland
595,Bay SUP,http://www.baysup.ie,353872133996,-9.1474163366579,53.1210749239918,Clare,Ballyvaughan,Republic of Ireland
596,Baya The Storyteller,https://www.facebook.com/bayathestoryteller,+353(0)87288498,-7.03905719861143,52.3719786474143,Kilkenny,Mullinavat,Republic of Ireland
597,Baysports,http://www.baysports.ie,353906494801,-7.985901,53.468941,Roscommon,Athlone,Republic of Ireland
598,Bayview Angling Centre,https://www.bayviewangling.com,353949546385,-9.238085,53.519606,Mayo,Cong,Republic of Ireland
599,Bayview Inn,http://www.thebayviewinn.net,3532767981,-9.7036179,51.5807224,Cork,Kilcrohane,Republic of Ireland
600,Bayview Restaurant,https://www.facebook.com/BayviewInishmore,353867929925,-9.6688729,53.119329,Galway,Inishmore - Árainn (Aran Islands),Republic of Ireland
601,Beach Bar Surf School,http://www.facebook.com/beachbarsurfschool,353860738869,-8.757129,54.269282,Sligo,Templeboy,Republic of Ireland
602,Beaches Restaurant at Kelly's Resort Hotel,https://www.kellys.ie/beaches.html,353539132114,-6.3875484,52.2754194,Wexford,Rosslare,Republic of Ireland
603,Béal Bán Green Coast Beach 2019,,,-10.3975489290999,52.1777499833282,Kerry,Ballyferriter,Republic of Ireland
604,Béal Ború – Brian Ború's Fort,http://voicesfromthedawn.com/beal-boru,35361376866,-8.4516586,52.8188887,Clare,Killaloe,Republic of Ireland
605,Beal Organic Cheese,https://beal.ie/contact,353868239582,-9.48804514716361,52.4477217173866,Kerry,Listowel,Republic of Ireland
606,Beale Strand,,,-9.6312144,52.573972,Kerry,Ballybunion,Republic of Ireland
607,Beans and Leaves Café and Deli,http://www.facebook.com/beans.leaves,353906433534,-7.9395648,53.4231715,Westmeath,Athlone,Republic of Ireland
608,Bear Essentials,http://www.bearessentials.ie,353877610537,-7.7100841,54.125789,Cavan,Bawnboy,Republic of Ireland
609,Beara Baoi Tours - Dursey Island,http://bearabaoitours.com,+353(0)876461627,-10.1546231718999,51.6100144176917,Cork,Dursey Island,Republic of Ireland
610,Beara Outdoor Adventures,http://www.beara-outdoors.com,353876678618,-9.51045744845154,51.8292133480789,Kerry,Bonane,Republic of Ireland
611,Beara Walks & Talks,http://bearawalks.com,+353(0)2763630,-9.55125630341797,51.772654323823,Cork,Glengarriff,Republic of Ireland
612,Beara Way Cycling Route,,+353(0)2821489,-9.94999204762586,51.6956643207193,Cork,Beara Peninsula,Republic of Ireland
613,Bearna Breac Loop,http://facebook.com/windgap.tidytowns,+353(0)874186077,-7.39869085529483,52.4641897546619,Kilkenny,Windgap,Republic of Ireland
614,Bearna Golf Club,http://www.bearnagolfclub.com,35391592677,-9.1652183,53.2785965,Galway,Barna,Republic of Ireland
615,Beaufield Mews,http://www.facebook.com/beaufieldmews,+353(0)12880375,-6.205087,53.290911,Dublin,Stillorgan,Republic of Ireland
616,Beaufort Bar and Restaurant,http://www.beaufortbar.com,353646644032,-9.633156,52.069846,Kerry,Beaufort,Republic of Ireland
617,Beaufort Golf Club,http://www.beaufortgc.com,353646644440,-9.674517,52.067319,Kerry,Beaufort,Republic of Ireland
618,Beaulieu House and Gardens,http://beaulieuhouse.ie,353419838557,-6.2935996,53.7281596,Louth,Drogheda,Republic of Ireland
619,Beaulieu House Gardens,http://www.beaulieuhouse.ie,353419838557,-6.2935996,53.7281596,Louth,Drogheda,Republic of Ireland
620,Beaumont House,,+353(0)18371008,-6.23340052282333,53.3855331930933,Dublin,Whitehall,Republic of Ireland
621,Beautiful Meath,http://www.beautifulmeath.com,+353(0)866055537,-6.683543,53.666201,Meath,Navan,Republic of Ireland
622,Beaverstown Golf Club,http://www.beaverstown.com,35318436439,-6.151194,53.498156,Dublin,Donabate,Republic of Ireland
623,Bective Abbey,http://monastic.ie/history/bective-cistercian-abbey,,-6.7028943,53.5824741,Meath,Navan,Republic of Ireland
624,Bee Wise Nature Trail,http://beewise.ie,+353(0)863446791,-6.71067231355983,53.5531190963068,Meath,Kilmessan,Republic of Ireland
625,Beech Health Club and Spa at Westport Woods Hotel,https://www.westportwoodshotel.com/beech-spa-westport-hotel.html,3539825811,-9.541186,53.799244,Mayo,Westport,Republic of Ireland
626,Beech Park Golf Club,https://beechpark.ie,35314580522,-6.4981117,53.2600132,Dublin,Rathcoole,Republic of Ireland
627,Beechdale Plantsplus Garden Centre,http://www.beechdale.ie,353539244271,-6.6880464,52.4607195,Wexford,Clonroche,Republic of Ireland
628,Beechmount Art Studio,http://www.beechmountartstudio.com,353879385026,-8.85353885740687,53.3824631385746,Galway,Turloughmore,Republic of Ireland
629,Beer Market,http://galwaybaybrewery.com/beermarket,+353(0)12444917,-6.27326208088152,53.3433974892064,Dublin,Dublin City,Republic of Ireland
630,Beerhouse,http://www.beerhousedublin.com,+353(0)18047023,-6.267889735582,53.3463894072842,Dublin,Dublin City,Republic of Ireland
631,Bel Air Equestrian Centre,http://www.belairhotelequestrian.com/,35340440109,-6.1222048,53.0018339,Wicklow,Ashford,Republic of Ireland
632,Belcarra Eviction Cottage,http://www.museumsofmayo.com/eviction-cottage/eviction-cottage-belcarra.html,353879090046,-9.2190281,53.8129006,Mayo,Belcarra,Republic of Ireland
633,Belderrig  Valley Experience,http://www.belderrigvalley.com,+353(0)872515292,-9.3516456,53.934581,Mayo,Ballina,Republic of Ireland
634,Belfast & Titanic Tour - Hilltop Treks,http://www.Hilltoptreks.ie,+353(0)877849599,-6.348872,53.27747,Dublin,Dublin City,Republic of Ireland
635,Belfast city and Titanic tour - Extreme Ireland,http://www.irishdaytours.ie/tour/belfast-tour,+353(0)863169788,-6.2596291,53.3443425,Dublin,Dublin City,Republic of Ireland
636,"Belfast, Titanic & Giants Causeway - Wild Rover Tours",https://www.facebook.com/WildRoverDayToursIreland,+353(0)12845560,-6.26018078414836,53.3493606218099,Dublin,Dublin City,Republic of Ireland
637,Bella Bia,https://www.facebook.com/pages/Bella-Bia/121313454609146,353667144896,-9.7086284,52.2675049,Kerry,Tralee,Republic of Ireland
638,Bella Cuba,http://bella-cuba.com/,+353(0)16605539,-6.232072,53.329324,Dublin,Dublin City,Republic of Ireland
639,Bella Italia,https://www.bellaitalia.ie,35361418872,-8.6255806,52.6624183,Limerick,Limerick City,Republic of Ireland
640,Bellacragher Boat Club,http://bellacragherboatclub.ie/claggan-ferry-tour,+353(0)876579348,-9.82844337699839,53.9674584269329,Mayo,Westport,Republic of Ireland
641,Belleek - Multi Access,http://www.irishtrails.ie/Trail/Belleek---Multi-Access/421/,,-9.14440483695682,54.1266814870017,Mayo,Ballina,Republic of Ireland
642,Belleek Woods,http://www.northmayo.ie/belleek-woods/,,-9.14571648726701,54.1332182927074,Mayo,Ballina,Republic of Ireland
643,Bellefield Design,http://www.kilcannon.ie/bellefield-design/,353539236294,-6.579892,52.506111,Wexford,Enniscorthy,Republic of Ireland
644,Belles Kitchen,https://www.rathmullanrestaurants.com,353749158800,-7.534192,55.095536,Donegal,Rathmullan,Republic of Ireland
645,Bellewstown Golf Club,http://www.bellewstowngolfclub.ie,353419882757,-6.337637,53.649168,Meath,Bellewstown,Republic of Ireland
646,Bellewstown Racecourse,http://www.bellewstownraces.ie,+353(0)419842111,-6.34645375901698,53.6444174475037,Meath,Bellewstown,Republic of Ireland
647,Bellefield House & Gardens,http://www.angelajupe.ie,353866002180,-7.9319548,52.9962592,Offaly,Birr,Republic of Ireland
648,Bellissimo,http://www.bellissimo-waterford.com,35351879178,-7.0846672,52.2465986,Waterford,Waterford City,Republic of Ireland
649,Bells Bar,https://www.maldronhotelshandoncorkcity.com/dining,353214529200,-8.474596,51.902753,Cork,Cork City,Republic of Ireland
650,Beltra Country Market,https://www.facebook.com/beltracountrymarket/,353868709400,-8.624828,54.2218763,Sligo,Skreen,Republic of Ireland
651,Belturbet Farmer's Market,http://discoverbelturbet.ie/local-producecrafts/farmers-market,353876860663,-7.4496679,54.1019056,Cavan,Belturbet,Republic of Ireland
652,Belturbet Golf Club,https://www.facebook.com/BelturbetGolfClub,353499522287,-7.4297153,54.1009779,Cavan,Belturbet,Republic of Ireland
653,Belturbet Railway Station,http://www.discoverbelturbet.ie/about-belturbet/belturbet-railway-station,353499522074,-7.4422836,54.0976819,Cavan,Belturbet,Republic of Ireland
654,Belvedere House Gardens & Park,http://www.belvedere-house.ie,353449338960,-7.369202,53.477197,Westmeath,Mullingar,Republic of Ireland
655,Belvedere House Gardens and Park,http://www.belvedere-house.ie,353449349060,-7.369202,53.477197,Westmeath,Mullingar,Republic of Ireland
656,Ben O'Neill Music Shop,https://www.facebook.com/BenONeillMusicShop/,+353 (058) 41933,-7.6238681,52.0894793,Waterford,Dungarvan,Republic of Ireland
657,Benard Loop,http://www.irishtrails.ie/Trail/Benard-Loop/481/,+353(0)6391300,-8.34783236894467,52.3737983741772,Limerick,Ballylanders,Republic of Ireland
658,Benbulben,,,-8.4744444,54.3666667,Sligo,Sligo Town,Republic of Ireland
659,Rathcormac Craft Village,https://rathcormac-craft-village.business.site/,353852752589,-8.4845208,54.3198064,Sligo,Rathcormack,Republic of Ireland
660,Benbulben Pottery,http://davemcloughlinceramics.com,353862155234,-8.4833994,54.3193646,Sligo,Rathcormack,Republic of Ireland
661,"Benny's Deli, Restaurant and Café",http://twitter.com/BennysDeli,353949620575,-8.494767,53.769361,Roscommon,Castlerea,Republic of Ireland
662,Bens Surf Clinic,http://www.facebook.com/BensSurfClinicLahinch,353868448622,-9.34733702550648,52.9332877683877,Clare,Lahinch,Republic of Ireland
663,Beoir Chorca Dhuibhne - West Kerry Brewery,https://westkerrybrewery.ie,353876822834,-10.3863964,52.1704021,Kerry,Ballyferriter,Republic of Ireland
664,Bere Island,http://www.bereisland.net,+353(0)2775099,-9.86344539008676,51.6304715371706,Cork,Bere Island,Republic of Ireland
665,Bere Island - Ardnakinna West Island Loop,http://www.bearatourism.com/loopwalks.html,+353(0)2770054,-9.9154563469949,51.6183124455721,Cork,Bere Island,Republic of Ireland
666,Bere Island - East End Pier,,,-9.819922,51.634348,Cork,Bere Island,Republic of Ireland
667,Bere Island - Rerrin Loop,http://www.bearatourism.com/loopwalks.html,+353(0)2770054,-9.88185363521596,51.6363513926402,Cork,Bere Island,Republic of Ireland
668,Bere Island (West End Pier),,,-9.866889,51.6332349,Cork,Bere Island,Republic of Ireland
669,Bere Island Ferries,http://www.bereislandferries.com,+353(0)2775009,-9.897609,51.636061,Cork,Castletownbere,Republic of Ireland
670,Bere Island Heritage Centre,http://www.bereisland.net/activities/heritage-centre,3532775956,-9.8800912,51.6352472,Cork,Bere Island,Republic of Ireland
671,Berehaven Golf and Amenity Park,http://www.berehavengolf.com,3532770700,-9.8605084,51.6541411,Cork,Castletownbere,Republic of Ireland
672,Berehaven Lodge Restaurant,http://www.berehavenlodge.com/dining-castletownbere.html,3532771464,-9.833361,51.659056,Cork,Castletownbere,Republic of Ireland
673,Berkeley Forest House,http://berkeleyforesthouse.com,35351421361,-6.87329905285651,52.4140252381181,Wexford,New Ross,Republic of Ireland
674,Berlitz Language Centre,https://www.facebook.com/BerlitzDublin,+353(0)16449742,-6.250585,53.341729,Dublin,Dublin City,Republic of Ireland
675,Bernard Fagan Horse Drawn Carriages,http://www.horsedrawncarriagesdublin.com/,+353(0)868748691,-6.27732856041867,53.3490382014864,Dublin,Dublin City,Republic of Ireland
676,Bernard Kavanagh Coaches,http://www.bkavcoaches.com/,+353(0)568831189,-7.586953,52.719087,Kilkenny,Urlingford,Republic of Ireland
677,Bernard McGlinchey Town Park,http://www.donegalcoco.ie,+353(0)749153900,-7.73671587256198,54.9511565041299,Donegal,Letterkenny,Republic of Ireland
678,Berry Lodge Cookery School,http://www.berrylodge.com,353657087022,-9.430075,52.8304448,Clare,Milltown Malbay,Republic of Ireland
679,Bertra Beach, https://beachawards.ie/blue-flag/sites-2-2,35314002202,-9.6613629,53.7882615,Mayo,Murrisk,Republic of Ireland
680,Beshoffs Restaurant,http://www.beshoffrestaurant.com/,+353(0)18724400,-6.2600837233981,53.3502615197419,Dublin,Dublin City,Republic of Ireland
681,Best of Dublin Walking Tour - Pat Liddy Walking Tours,http://www.walkingtours.ie,+353(0)18329406,-6.26074684357457,53.3504988692415,Dublin,Dublin City,Republic of Ireland
682,Best of Irish Rock & Roll Music Tour - LetzGo City Tours,https://www.facebook.com/letzgocitytours,+353(0)12548650,-6.29209543788909,53.3656392193716,Dublin,Dublin City,Republic of Ireland
683,Bevans Glass,https://www.discoverireland.ie/Arts-Culture-Heritage/bevans-glass/69924,353874151616,-7.916396,52.966171,Offaly,Shinrone,Republic of Ireland
684,Bevel Furniture,http://www.bevelfurniture.com,353868232180,-6.8541224,52.2077838,Wexford,Fethard On Sea,Republic of Ireland
685,Beyond the Glass Adventure Tours,http://beyondtheglass.ie,+353(0)863850398,-8.78492605764154,51.9174656550127,Cork,Cork City,Republic of Ireland
686,BEYOND THE GLASS Cycle Tour of Cork City,http://www.beyondtheglass.ie,+353(0)863850398,-8.50460435079458,51.8887420172216,Cork,Cork City,Republic of Ireland
687,BEYOND THE GLASS Wild Atlantic Way Adventure Tours,http://www.beyondtheglass.ie/6dayactivitytourofcorkandkerry,+353(0)863850398,-8.78492605764154,51.9174656550127,Cork,Kinsale,Republic of Ireland
688,Bianconi  Restaurant at the Granville,https://www.granvillehotel.ie/en/bianconi-restaurant-waterford-greenway,35351303555,-7.1120794,52.2621198,Waterford,Waterford City,Republic of Ireland
689,Bianconi Inn,http://www.bianconi.ie,353669761146,-9.7847527,52.1060953,Kerry,Killorglin,Republic of Ireland
690,Bianconi Loop,https://www.sportireland.ie/outdoors/walking/trails/glen-of-aherlow-bianconi-loop,+353(0)6256331,-8.16862652421491,52.4304939570149,Tipperary,Glen Of Aherlow,Republic of Ireland
691,Bicycle Hire at Harbour Office,https://www.visitwexford.ie/directory/bicycle-hire-at-kilmore-quay/,353539129955,-6.589453,52.172146,Wexford,Kilmore Quay,Republic of Ireland
692,Bicycle Hire at Leim Siar,http://www.leimsiar.com/index.php?page=cycle-hire-blacksod-mayo,3539785004,-10.070072,54.098876,Mayo,Blacksod,Republic of Ireland
693,Bicycle Hire at Mulranny Park Hotel,https://www.mulrannyparkhotel.ie/greenway-adventures.html,3539836000,-9.782639,53.906019,Mayo,Mulranny,Republic of Ireland
694,Biddy O Barnes,http://biddysobarnes.com,353749722647,-7.9707692,54.709495,Donegal,Barnesmore,Republic of Ireland
695,Biddy's Cottage,https://www.biddyscottage.com,353864117844,-6.09653852429813,53.2765598185375,Dublin,Dalkey,Republic of Ireland
696,Big Smoke Writing Factory,http://www.bigsmokewritingfactory.com/index.php,+353(0)879766253,-6.2634198,53.3367742,Dublin,Dublin City,Republic of Ireland
697,BigStyle SUP,http://bigstyle.ie/,+353(0)14370657,-6.22052885526784,53.3434983450159,Dublin,Dublin City,Republic of Ireland
698,Clifden Bike Shop,www.clifdenbikeshop.ie,3539522630,-10.0209000153443,53.4875734195623,Galway,Clifden,Republic of Ireland
699,Bike Hire at Loftus Hall,http://www.inviteireland.com/Activity-In/new-ross/bike-hire-at-loftus-hall/2781/,35351397728,-6.91067902896111,52.1485537260183,Wexford,The Hook,Republic of Ireland
700,Bike Hire Dublin,http://www.bikehiredublin.com,353892264618,-6.2684908,53.3481516,Dublin,Dublin City,Republic of Ireland
